<?xml version="1.0" encoding="UTF-8"?>
<gpx version="1.1" creator="Car Guy tools/gen-drive-gpx.mjs" xmlns="http://www.topografix.com/GPX/1/1">
  <metadata>
    <name>Car Guy — drive-synthetic</name>
    <desc>Synthetic drive, Santo Domingo (27 de Febrero → Máximo Gómez → Independencia). 12.1 km, 26 min, 0–95 km/h; stops 2 min, 2 min, 5 min. Generated by tools/gen-drive-gpx.mjs.</desc>
    <time>2026-09-29T13:00:00.000Z</time>
  </metadata>
  <trk>
    <name>drive-synthetic</name>
    <trkseg>
      <trkpt lat="18.449707" lon="-69.970001"><ele>20</ele><time>2026-09-29T13:00:00Z</time></trkpt>
      <trkpt lat="18.449707" lon="-69.969996"><ele>20</ele><time>2026-09-29T13:00:02Z</time></trkpt>
      <trkpt lat="18.449708" lon="-69.969996"><ele>20</ele><time>2026-09-29T13:00:04Z</time></trkpt>
      <trkpt lat="18.449708" lon="-69.969993"><ele>20</ele><time>2026-09-29T13:00:06Z</time></trkpt>
      <trkpt lat="18.449702" lon="-69.969991"><ele>20</ele><time>2026-09-29T13:00:08Z</time></trkpt>
      <trkpt lat="18.449705" lon="-69.969986"><ele>20</ele><time>2026-09-29T13:00:10Z</time></trkpt>
      <trkpt lat="18.449705" lon="-69.969987"><ele>20</ele><time>2026-09-29T13:00:12Z</time></trkpt>
      <trkpt lat="18.449705" lon="-69.969989"><ele>20</ele><time>2026-09-29T13:00:14Z</time></trkpt>
      <trkpt lat="18.449699" lon="-69.969986"><ele>20</ele><time>2026-09-29T13:00:16Z</time></trkpt>
      <trkpt lat="18.449701" lon="-69.969988"><ele>20</ele><time>2026-09-29T13:00:18Z</time></trkpt>
      <trkpt lat="18.449707" lon="-69.969968"><ele>20</ele><time>2026-09-29T13:00:20Z</time></trkpt>
      <trkpt lat="18.449751" lon="-69.969883"><ele>20</ele><time>2026-09-29T13:00:22Z</time></trkpt>
      <trkpt lat="18.449825" lon="-69.969735"><ele>20</ele><time>2026-09-29T13:00:24Z</time></trkpt>
      <trkpt lat="18.449917" lon="-69.969549"><ele>20</ele><time>2026-09-29T13:00:26Z</time></trkpt>
      <trkpt lat="18.450010" lon="-69.969364"><ele>20</ele><time>2026-09-29T13:00:28Z</time></trkpt>
      <trkpt lat="18.450105" lon="-69.969177"><ele>20</ele><time>2026-09-29T13:00:30Z</time></trkpt>
      <trkpt lat="18.450199" lon="-69.968995"><ele>20</ele><time>2026-09-29T13:00:32Z</time></trkpt>
      <trkpt lat="18.450291" lon="-69.968805"><ele>20</ele><time>2026-09-29T13:00:34Z</time></trkpt>
      <trkpt lat="18.450379" lon="-69.968617"><ele>20</ele><time>2026-09-29T13:00:36Z</time></trkpt>
      <trkpt lat="18.450474" lon="-69.968428"><ele>20</ele><time>2026-09-29T13:00:38Z</time></trkpt>
      <trkpt lat="18.450566" lon="-69.968241"><ele>20</ele><time>2026-09-29T13:00:40Z</time></trkpt>
      <trkpt lat="18.450659" lon="-69.968059"><ele>20</ele><time>2026-09-29T13:00:42Z</time></trkpt>
      <trkpt lat="18.450753" lon="-69.967878"><ele>20</ele><time>2026-09-29T13:00:44Z</time></trkpt>
      <trkpt lat="18.450851" lon="-69.967699"><ele>20</ele><time>2026-09-29T13:00:46Z</time></trkpt>
      <trkpt lat="18.450949" lon="-69.967519"><ele>20</ele><time>2026-09-29T13:00:48Z</time></trkpt>
      <trkpt lat="18.451048" lon="-69.967330"><ele>20</ele><time>2026-09-29T13:00:50Z</time></trkpt>
      <trkpt lat="18.451144" lon="-69.967142"><ele>20</ele><time>2026-09-29T13:00:52Z</time></trkpt>
      <trkpt lat="18.451240" lon="-69.966960"><ele>20</ele><time>2026-09-29T13:00:54Z</time></trkpt>
      <trkpt lat="18.451338" lon="-69.966775"><ele>20</ele><time>2026-09-29T13:00:56Z</time></trkpt>
      <trkpt lat="18.451426" lon="-69.966587"><ele>20</ele><time>2026-09-29T13:00:58Z</time></trkpt>
      <trkpt lat="18.451514" lon="-69.966402"><ele>20</ele><time>2026-09-29T13:01:00Z</time></trkpt>
      <trkpt lat="18.451605" lon="-69.966214"><ele>20</ele><time>2026-09-29T13:01:02Z</time></trkpt>
      <trkpt lat="18.451698" lon="-69.966030"><ele>20</ele><time>2026-09-29T13:01:04Z</time></trkpt>
      <trkpt lat="18.451795" lon="-69.965845"><ele>20</ele><time>2026-09-29T13:01:06Z</time></trkpt>
      <trkpt lat="18.451890" lon="-69.965658"><ele>20</ele><time>2026-09-29T13:01:08Z</time></trkpt>
      <trkpt lat="18.451988" lon="-69.965474"><ele>20</ele><time>2026-09-29T13:01:10Z</time></trkpt>
      <trkpt lat="18.452083" lon="-69.965290"><ele>20</ele><time>2026-09-29T13:01:12Z</time></trkpt>
      <trkpt lat="18.452173" lon="-69.965107"><ele>20</ele><time>2026-09-29T13:01:14Z</time></trkpt>
      <trkpt lat="18.452272" lon="-69.964920"><ele>20</ele><time>2026-09-29T13:01:16Z</time></trkpt>
      <trkpt lat="18.452371" lon="-69.964726"><ele>20</ele><time>2026-09-29T13:01:18Z</time></trkpt>
      <trkpt lat="18.452469" lon="-69.964541"><ele>20</ele><time>2026-09-29T13:01:20Z</time></trkpt>
      <trkpt lat="18.452565" lon="-69.964358"><ele>20</ele><time>2026-09-29T13:01:22Z</time></trkpt>
      <trkpt lat="18.452657" lon="-69.964169"><ele>20</ele><time>2026-09-29T13:01:24Z</time></trkpt>
      <trkpt lat="18.452749" lon="-69.963985"><ele>20</ele><time>2026-09-29T13:01:26Z</time></trkpt>
      <trkpt lat="18.452837" lon="-69.963802"><ele>20</ele><time>2026-09-29T13:01:28Z</time></trkpt>
      <trkpt lat="18.452927" lon="-69.963615"><ele>20</ele><time>2026-09-29T13:01:30Z</time></trkpt>
      <trkpt lat="18.453020" lon="-69.963429"><ele>20</ele><time>2026-09-29T13:01:32Z</time></trkpt>
      <trkpt lat="18.453116" lon="-69.963249"><ele>20</ele><time>2026-09-29T13:01:34Z</time></trkpt>
      <trkpt lat="18.453216" lon="-69.963064"><ele>20</ele><time>2026-09-29T13:01:36Z</time></trkpt>
      <trkpt lat="18.453307" lon="-69.962877"><ele>20</ele><time>2026-09-29T13:01:38Z</time></trkpt>
      <trkpt lat="18.453397" lon="-69.962693"><ele>20</ele><time>2026-09-29T13:01:40Z</time></trkpt>
      <trkpt lat="18.453492" lon="-69.962506"><ele>20</ele><time>2026-09-29T13:01:42Z</time></trkpt>
      <trkpt lat="18.453589" lon="-69.962317"><ele>20</ele><time>2026-09-29T13:01:44Z</time></trkpt>
      <trkpt lat="18.453681" lon="-69.962131"><ele>20</ele><time>2026-09-29T13:01:46Z</time></trkpt>
      <trkpt lat="18.453777" lon="-69.961952"><ele>20</ele><time>2026-09-29T13:01:48Z</time></trkpt>
      <trkpt lat="18.453870" lon="-69.961761"><ele>20</ele><time>2026-09-29T13:01:50Z</time></trkpt>
      <trkpt lat="18.453961" lon="-69.961576"><ele>20</ele><time>2026-09-29T13:01:52Z</time></trkpt>
      <trkpt lat="18.454055" lon="-69.961387"><ele>20</ele><time>2026-09-29T13:01:54Z</time></trkpt>
      <trkpt lat="18.454141" lon="-69.961200"><ele>20</ele><time>2026-09-29T13:01:56Z</time></trkpt>
      <trkpt lat="18.454228" lon="-69.961005"><ele>20</ele><time>2026-09-29T13:01:58Z</time></trkpt>
      <trkpt lat="18.454319" lon="-69.960813"><ele>20</ele><time>2026-09-29T13:02:00Z</time></trkpt>
      <trkpt lat="18.454407" lon="-69.960624"><ele>20</ele><time>2026-09-29T13:02:02Z</time></trkpt>
      <trkpt lat="18.454493" lon="-69.960430"><ele>20</ele><time>2026-09-29T13:02:04Z</time></trkpt>
      <trkpt lat="18.454586" lon="-69.960245"><ele>20</ele><time>2026-09-29T13:02:06Z</time></trkpt>
      <trkpt lat="18.454672" lon="-69.960061"><ele>20</ele><time>2026-09-29T13:02:08Z</time></trkpt>
      <trkpt lat="18.454768" lon="-69.959867"><ele>20</ele><time>2026-09-29T13:02:10Z</time></trkpt>
      <trkpt lat="18.454854" lon="-69.959679"><ele>20</ele><time>2026-09-29T13:02:12Z</time></trkpt>
      <trkpt lat="18.454951" lon="-69.959487"><ele>20</ele><time>2026-09-29T13:02:14Z</time></trkpt>
      <trkpt lat="18.455042" lon="-69.959296"><ele>20</ele><time>2026-09-29T13:02:16Z</time></trkpt>
      <trkpt lat="18.455127" lon="-69.959108"><ele>20</ele><time>2026-09-29T13:02:18Z</time></trkpt>
      <trkpt lat="18.455210" lon="-69.958927"><ele>20</ele><time>2026-09-29T13:02:20Z</time></trkpt>
      <trkpt lat="18.455305" lon="-69.958738"><ele>20</ele><time>2026-09-29T13:02:22Z</time></trkpt>
      <trkpt lat="18.455390" lon="-69.958555"><ele>20</ele><time>2026-09-29T13:02:24Z</time></trkpt>
      <trkpt lat="18.455476" lon="-69.958365"><ele>20</ele><time>2026-09-29T13:02:26Z</time></trkpt>
      <trkpt lat="18.455537" lon="-69.958238"><ele>20</ele><time>2026-09-29T13:02:28Z</time></trkpt>
      <trkpt lat="18.455538" lon="-69.958239"><ele>20</ele><time>2026-09-29T13:02:30Z</time></trkpt>
      <trkpt lat="18.455534" lon="-69.958240"><ele>20</ele><time>2026-09-29T13:02:32Z</time></trkpt>
      <trkpt lat="18.455535" lon="-69.958238"><ele>20</ele><time>2026-09-29T13:02:34Z</time></trkpt>
      <trkpt lat="18.455537" lon="-69.958236"><ele>20</ele><time>2026-09-29T13:02:36Z</time></trkpt>
      <trkpt lat="18.455538" lon="-69.958243"><ele>20</ele><time>2026-09-29T13:02:38Z</time></trkpt>
      <trkpt lat="18.455535" lon="-69.958247"><ele>20</ele><time>2026-09-29T13:02:40Z</time></trkpt>
      <trkpt lat="18.455536" lon="-69.958248"><ele>20</ele><time>2026-09-29T13:02:42Z</time></trkpt>
      <trkpt lat="18.455537" lon="-69.958242"><ele>20</ele><time>2026-09-29T13:02:44Z</time></trkpt>
      <trkpt lat="18.455537" lon="-69.958239"><ele>20</ele><time>2026-09-29T13:02:46Z</time></trkpt>
      <trkpt lat="18.455542" lon="-69.958237"><ele>20</ele><time>2026-09-29T13:02:48Z</time></trkpt>
      <trkpt lat="18.455543" lon="-69.958234"><ele>20</ele><time>2026-09-29T13:02:50Z</time></trkpt>
      <trkpt lat="18.455546" lon="-69.958230"><ele>20</ele><time>2026-09-29T13:02:52Z</time></trkpt>
      <trkpt lat="18.455541" lon="-69.958224"><ele>20</ele><time>2026-09-29T13:02:54Z</time></trkpt>
      <trkpt lat="18.455538" lon="-69.958234"><ele>20</ele><time>2026-09-29T13:02:56Z</time></trkpt>
      <trkpt lat="18.455538" lon="-69.958234"><ele>20</ele><time>2026-09-29T13:02:58Z</time></trkpt>
      <trkpt lat="18.455534" lon="-69.958235"><ele>20</ele><time>2026-09-29T13:03:00Z</time></trkpt>
      <trkpt lat="18.455531" lon="-69.958234"><ele>20</ele><time>2026-09-29T13:03:02Z</time></trkpt>
      <trkpt lat="18.455531" lon="-69.958237"><ele>20</ele><time>2026-09-29T13:03:04Z</time></trkpt>
      <trkpt lat="18.455530" lon="-69.958236"><ele>20</ele><time>2026-09-29T13:03:06Z</time></trkpt>
      <trkpt lat="18.455530" lon="-69.958239"><ele>20</ele><time>2026-09-29T13:03:08Z</time></trkpt>
      <trkpt lat="18.455534" lon="-69.958236"><ele>20</ele><time>2026-09-29T13:03:10Z</time></trkpt>
      <trkpt lat="18.455535" lon="-69.958234"><ele>20</ele><time>2026-09-29T13:03:12Z</time></trkpt>
      <trkpt lat="18.455536" lon="-69.958232"><ele>20</ele><time>2026-09-29T13:03:14Z</time></trkpt>
      <trkpt lat="18.455537" lon="-69.958230"><ele>20</ele><time>2026-09-29T13:03:16Z</time></trkpt>
      <trkpt lat="18.455538" lon="-69.958230"><ele>20</ele><time>2026-09-29T13:03:18Z</time></trkpt>
      <trkpt lat="18.455537" lon="-69.958226"><ele>20</ele><time>2026-09-29T13:03:20Z</time></trkpt>
      <trkpt lat="18.455536" lon="-69.958226"><ele>20</ele><time>2026-09-29T13:03:22Z</time></trkpt>
      <trkpt lat="18.455534" lon="-69.958227"><ele>20</ele><time>2026-09-29T13:03:24Z</time></trkpt>
      <trkpt lat="18.455534" lon="-69.958225"><ele>20</ele><time>2026-09-29T13:03:26Z</time></trkpt>
      <trkpt lat="18.455532" lon="-69.958226"><ele>20</ele><time>2026-09-29T13:03:28Z</time></trkpt>
      <trkpt lat="18.455529" lon="-69.958229"><ele>20</ele><time>2026-09-29T13:03:30Z</time></trkpt>
      <trkpt lat="18.455530" lon="-69.958228"><ele>20</ele><time>2026-09-29T13:03:32Z</time></trkpt>
      <trkpt lat="18.455531" lon="-69.958229"><ele>20</ele><time>2026-09-29T13:03:34Z</time></trkpt>
      <trkpt lat="18.455536" lon="-69.958229"><ele>20</ele><time>2026-09-29T13:03:36Z</time></trkpt>
      <trkpt lat="18.455535" lon="-69.958232"><ele>20</ele><time>2026-09-29T13:03:38Z</time></trkpt>
      <trkpt lat="18.455536" lon="-69.958238"><ele>20</ele><time>2026-09-29T13:03:40Z</time></trkpt>
      <trkpt lat="18.455534" lon="-69.958229"><ele>20</ele><time>2026-09-29T13:03:42Z</time></trkpt>
      <trkpt lat="18.455537" lon="-69.958233"><ele>20</ele><time>2026-09-29T13:03:44Z</time></trkpt>
      <trkpt lat="18.455538" lon="-69.958238"><ele>20</ele><time>2026-09-29T13:03:46Z</time></trkpt>
      <trkpt lat="18.455535" lon="-69.958239"><ele>20</ele><time>2026-09-29T13:03:48Z</time></trkpt>
      <trkpt lat="18.455526" lon="-69.958236"><ele>20</ele><time>2026-09-29T13:03:50Z</time></trkpt>
      <trkpt lat="18.455528" lon="-69.958237"><ele>20</ele><time>2026-09-29T13:03:52Z</time></trkpt>
      <trkpt lat="18.455535" lon="-69.958236"><ele>20</ele><time>2026-09-29T13:03:54Z</time></trkpt>
      <trkpt lat="18.455537" lon="-69.958238"><ele>20</ele><time>2026-09-29T13:03:56Z</time></trkpt>
      <trkpt lat="18.455538" lon="-69.958241"><ele>20</ele><time>2026-09-29T13:03:58Z</time></trkpt>
      <trkpt lat="18.455534" lon="-69.958242"><ele>20</ele><time>2026-09-29T13:04:00Z</time></trkpt>
      <trkpt lat="18.455533" lon="-69.958239"><ele>20</ele><time>2026-09-29T13:04:02Z</time></trkpt>
      <trkpt lat="18.455532" lon="-69.958239"><ele>20</ele><time>2026-09-29T13:04:04Z</time></trkpt>
      <trkpt lat="18.455536" lon="-69.958242"><ele>20</ele><time>2026-09-29T13:04:06Z</time></trkpt>
      <trkpt lat="18.455535" lon="-69.958238"><ele>20</ele><time>2026-09-29T13:04:08Z</time></trkpt>
      <trkpt lat="18.455535" lon="-69.958242"><ele>20</ele><time>2026-09-29T13:04:10Z</time></trkpt>
      <trkpt lat="18.455534" lon="-69.958245"><ele>20</ele><time>2026-09-29T13:04:12Z</time></trkpt>
      <trkpt lat="18.455535" lon="-69.958242"><ele>20</ele><time>2026-09-29T13:04:14Z</time></trkpt>
      <trkpt lat="18.455541" lon="-69.958235"><ele>20</ele><time>2026-09-29T13:04:16Z</time></trkpt>
      <trkpt lat="18.455542" lon="-69.958235"><ele>20</ele><time>2026-09-29T13:04:18Z</time></trkpt>
      <trkpt lat="18.455543" lon="-69.958231"><ele>20</ele><time>2026-09-29T13:04:20Z</time></trkpt>
      <trkpt lat="18.455547" lon="-69.958232"><ele>20</ele><time>2026-09-29T13:04:22Z</time></trkpt>
      <trkpt lat="18.455546" lon="-69.958234"><ele>20</ele><time>2026-09-29T13:04:24Z</time></trkpt>
      <trkpt lat="18.455544" lon="-69.958232"><ele>20</ele><time>2026-09-29T13:04:26Z</time></trkpt>
      <trkpt lat="18.455545" lon="-69.958228"><ele>20</ele><time>2026-09-29T13:04:28Z</time></trkpt>
      <trkpt lat="18.455541" lon="-69.958235"><ele>20</ele><time>2026-09-29T13:04:30Z</time></trkpt>
      <trkpt lat="18.455565" lon="-69.958184"><ele>20</ele><time>2026-09-29T13:04:32Z</time></trkpt>
      <trkpt lat="18.455623" lon="-69.958067"><ele>20</ele><time>2026-09-29T13:04:34Z</time></trkpt>
      <trkpt lat="18.455710" lon="-69.957888"><ele>20</ele><time>2026-09-29T13:04:36Z</time></trkpt>
      <trkpt lat="18.455797" lon="-69.957701"><ele>20</ele><time>2026-09-29T13:04:38Z</time></trkpt>
      <trkpt lat="18.455882" lon="-69.957509"><ele>20</ele><time>2026-09-29T13:04:40Z</time></trkpt>
      <trkpt lat="18.455974" lon="-69.957323"><ele>20</ele><time>2026-09-29T13:04:42Z</time></trkpt>
      <trkpt lat="18.456088" lon="-69.957087"><ele>20</ele><time>2026-09-29T13:04:44Z</time></trkpt>
      <trkpt lat="18.456222" lon="-69.956808"><ele>20</ele><time>2026-09-29T13:04:46Z</time></trkpt>
      <trkpt lat="18.456359" lon="-69.956524"><ele>20</ele><time>2026-09-29T13:04:48Z</time></trkpt>
      <trkpt lat="18.456496" lon="-69.956244"><ele>20</ele><time>2026-09-29T13:04:50Z</time></trkpt>
      <trkpt lat="18.456630" lon="-69.955962"><ele>20</ele><time>2026-09-29T13:04:52Z</time></trkpt>
      <trkpt lat="18.456758" lon="-69.955681"><ele>20</ele><time>2026-09-29T13:04:54Z</time></trkpt>
      <trkpt lat="18.456887" lon="-69.955399"><ele>20</ele><time>2026-09-29T13:04:56Z</time></trkpt>
      <trkpt lat="18.457021" lon="-69.955116"><ele>20</ele><time>2026-09-29T13:04:58Z</time></trkpt>
      <trkpt lat="18.457157" lon="-69.954831"><ele>20</ele><time>2026-09-29T13:05:00Z</time></trkpt>
      <trkpt lat="18.457289" lon="-69.954547"><ele>20</ele><time>2026-09-29T13:05:02Z</time></trkpt>
      <trkpt lat="18.457417" lon="-69.954263"><ele>20</ele><time>2026-09-29T13:05:04Z</time></trkpt>
      <trkpt lat="18.457547" lon="-69.953979"><ele>20</ele><time>2026-09-29T13:05:06Z</time></trkpt>
      <trkpt lat="18.457676" lon="-69.953695"><ele>20</ele><time>2026-09-29T13:05:08Z</time></trkpt>
      <trkpt lat="18.457807" lon="-69.953415"><ele>20</ele><time>2026-09-29T13:05:10Z</time></trkpt>
      <trkpt lat="18.457936" lon="-69.953131"><ele>20</ele><time>2026-09-29T13:05:12Z</time></trkpt>
      <trkpt lat="18.458069" lon="-69.952848"><ele>20</ele><time>2026-09-29T13:05:14Z</time></trkpt>
      <trkpt lat="18.458199" lon="-69.952560"><ele>20</ele><time>2026-09-29T13:05:16Z</time></trkpt>
      <trkpt lat="18.458326" lon="-69.952272"><ele>20</ele><time>2026-09-29T13:05:18Z</time></trkpt>
      <trkpt lat="18.458460" lon="-69.951990"><ele>20</ele><time>2026-09-29T13:05:20Z</time></trkpt>
      <trkpt lat="18.458588" lon="-69.951699"><ele>20</ele><time>2026-09-29T13:05:22Z</time></trkpt>
      <trkpt lat="18.458719" lon="-69.951406"><ele>20</ele><time>2026-09-29T13:05:24Z</time></trkpt>
      <trkpt lat="18.458851" lon="-69.951121"><ele>20</ele><time>2026-09-29T13:05:26Z</time></trkpt>
      <trkpt lat="18.458983" lon="-69.950831"><ele>20</ele><time>2026-09-29T13:05:28Z</time></trkpt>
      <trkpt lat="18.459112" lon="-69.950555"><ele>20</ele><time>2026-09-29T13:05:30Z</time></trkpt>
      <trkpt lat="18.459242" lon="-69.950271"><ele>20</ele><time>2026-09-29T13:05:32Z</time></trkpt>
      <trkpt lat="18.459371" lon="-69.949983"><ele>20</ele><time>2026-09-29T13:05:34Z</time></trkpt>
      <trkpt lat="18.459500" lon="-69.949699"><ele>20</ele><time>2026-09-29T13:05:36Z</time></trkpt>
      <trkpt lat="18.459632" lon="-69.949409"><ele>20</ele><time>2026-09-29T13:05:38Z</time></trkpt>
      <trkpt lat="18.459758" lon="-69.949122"><ele>20</ele><time>2026-09-29T13:05:40Z</time></trkpt>
      <trkpt lat="18.459887" lon="-69.948833"><ele>20</ele><time>2026-09-29T13:05:42Z</time></trkpt>
      <trkpt lat="18.460022" lon="-69.948540"><ele>20</ele><time>2026-09-29T13:05:44Z</time></trkpt>
      <trkpt lat="18.460147" lon="-69.948261"><ele>20</ele><time>2026-09-29T13:05:46Z</time></trkpt>
      <trkpt lat="18.460283" lon="-69.947976"><ele>20</ele><time>2026-09-29T13:05:48Z</time></trkpt>
      <trkpt lat="18.460417" lon="-69.947699"><ele>20</ele><time>2026-09-29T13:05:50Z</time></trkpt>
      <trkpt lat="18.460550" lon="-69.947413"><ele>20</ele><time>2026-09-29T13:05:52Z</time></trkpt>
      <trkpt lat="18.460676" lon="-69.947129"><ele>20</ele><time>2026-09-29T13:05:54Z</time></trkpt>
      <trkpt lat="18.460806" lon="-69.946848"><ele>20</ele><time>2026-09-29T13:05:56Z</time></trkpt>
      <trkpt lat="18.460934" lon="-69.946564"><ele>20</ele><time>2026-09-29T13:05:58Z</time></trkpt>
      <trkpt lat="18.461072" lon="-69.946284"><ele>20</ele><time>2026-09-29T13:06:00Z</time></trkpt>
      <trkpt lat="18.461202" lon="-69.946001"><ele>20</ele><time>2026-09-29T13:06:02Z</time></trkpt>
      <trkpt lat="18.461322" lon="-69.945718"><ele>20</ele><time>2026-09-29T13:06:04Z</time></trkpt>
      <trkpt lat="18.461444" lon="-69.945430"><ele>20</ele><time>2026-09-29T13:06:06Z</time></trkpt>
      <trkpt lat="18.461566" lon="-69.945139"><ele>20</ele><time>2026-09-29T13:06:08Z</time></trkpt>
      <trkpt lat="18.461692" lon="-69.944850"><ele>20</ele><time>2026-09-29T13:06:10Z</time></trkpt>
      <trkpt lat="18.461818" lon="-69.944560"><ele>20</ele><time>2026-09-29T13:06:12Z</time></trkpt>
      <trkpt lat="18.461941" lon="-69.944271"><ele>20</ele><time>2026-09-29T13:06:14Z</time></trkpt>
      <trkpt lat="18.462062" lon="-69.943984"><ele>20</ele><time>2026-09-29T13:06:16Z</time></trkpt>
      <trkpt lat="18.462191" lon="-69.943697"><ele>20</ele><time>2026-09-29T13:06:18Z</time></trkpt>
      <trkpt lat="18.462318" lon="-69.943411"><ele>20</ele><time>2026-09-29T13:06:20Z</time></trkpt>
      <trkpt lat="18.462442" lon="-69.943130"><ele>20</ele><time>2026-09-29T13:06:22Z</time></trkpt>
      <trkpt lat="18.462564" lon="-69.942843"><ele>20</ele><time>2026-09-29T13:06:24Z</time></trkpt>
      <trkpt lat="18.462706" lon="-69.942498"><ele>20</ele><time>2026-09-29T13:06:26Z</time></trkpt>
      <trkpt lat="18.462887" lon="-69.942091"><ele>20</ele><time>2026-09-29T13:06:28Z</time></trkpt>
      <trkpt lat="18.463079" lon="-69.941635"><ele>20</ele><time>2026-09-29T13:06:30Z</time></trkpt>
      <trkpt lat="18.463280" lon="-69.941178"><ele>20</ele><time>2026-09-29T13:06:32Z</time></trkpt>
      <trkpt lat="18.463475" lon="-69.940723"><ele>20</ele><time>2026-09-29T13:06:34Z</time></trkpt>
      <trkpt lat="18.463670" lon="-69.940268"><ele>20</ele><time>2026-09-29T13:06:36Z</time></trkpt>
      <trkpt lat="18.463862" lon="-69.939813"><ele>20</ele><time>2026-09-29T13:06:38Z</time></trkpt>
      <trkpt lat="18.464072" lon="-69.939361"><ele>20</ele><time>2026-09-29T13:06:40Z</time></trkpt>
      <trkpt lat="18.464311" lon="-69.938930"><ele>20</ele><time>2026-09-29T13:06:42Z</time></trkpt>
      <trkpt lat="18.464554" lon="-69.938491"><ele>20</ele><time>2026-09-29T13:06:44Z</time></trkpt>
      <trkpt lat="18.464786" lon="-69.938057"><ele>20</ele><time>2026-09-29T13:06:46Z</time></trkpt>
      <trkpt lat="18.465020" lon="-69.937628"><ele>20</ele><time>2026-09-29T13:06:48Z</time></trkpt>
      <trkpt lat="18.465257" lon="-69.937192"><ele>20</ele><time>2026-09-29T13:06:50Z</time></trkpt>
      <trkpt lat="18.465492" lon="-69.936755"><ele>20</ele><time>2026-09-29T13:06:52Z</time></trkpt>
      <trkpt lat="18.465731" lon="-69.936322"><ele>20</ele><time>2026-09-29T13:06:54Z</time></trkpt>
      <trkpt lat="18.465968" lon="-69.935889"><ele>20</ele><time>2026-09-29T13:06:56Z</time></trkpt>
      <trkpt lat="18.466207" lon="-69.935457"><ele>20</ele><time>2026-09-29T13:06:58Z</time></trkpt>
      <trkpt lat="18.466444" lon="-69.935026"><ele>20</ele><time>2026-09-29T13:07:00Z</time></trkpt>
      <trkpt lat="18.466678" lon="-69.934595"><ele>20</ele><time>2026-09-29T13:07:02Z</time></trkpt>
      <trkpt lat="18.466912" lon="-69.934160"><ele>20</ele><time>2026-09-29T13:07:04Z</time></trkpt>
      <trkpt lat="18.467151" lon="-69.933727"><ele>20</ele><time>2026-09-29T13:07:06Z</time></trkpt>
      <trkpt lat="18.467388" lon="-69.933289"><ele>20</ele><time>2026-09-29T13:07:08Z</time></trkpt>
      <trkpt lat="18.467625" lon="-69.932859"><ele>20</ele><time>2026-09-29T13:07:10Z</time></trkpt>
      <trkpt lat="18.467859" lon="-69.932426"><ele>20</ele><time>2026-09-29T13:07:12Z</time></trkpt>
      <trkpt lat="18.468092" lon="-69.931993"><ele>20</ele><time>2026-09-29T13:07:14Z</time></trkpt>
      <trkpt lat="18.468298" lon="-69.931540"><ele>20</ele><time>2026-09-29T13:07:16Z</time></trkpt>
      <trkpt lat="18.468467" lon="-69.931074"><ele>20</ele><time>2026-09-29T13:07:18Z</time></trkpt>
      <trkpt lat="18.468638" lon="-69.930605"><ele>20</ele><time>2026-09-29T13:07:20Z</time></trkpt>
      <trkpt lat="18.468805" lon="-69.930134"><ele>20</ele><time>2026-09-29T13:07:22Z</time></trkpt>
      <trkpt lat="18.468976" lon="-69.929661"><ele>20</ele><time>2026-09-29T13:07:24Z</time></trkpt>
      <trkpt lat="18.469142" lon="-69.929197"><ele>20</ele><time>2026-09-29T13:07:26Z</time></trkpt>
      <trkpt lat="18.469287" lon="-69.928789"><ele>20</ele><time>2026-09-29T13:07:28Z</time></trkpt>
      <trkpt lat="18.469395" lon="-69.928479"><ele>20</ele><time>2026-09-29T13:07:30Z</time></trkpt>
      <trkpt lat="18.469491" lon="-69.928206"><ele>20</ele><time>2026-09-29T13:07:32Z</time></trkpt>
      <trkpt lat="18.469591" lon="-69.927934"><ele>20</ele><time>2026-09-29T13:07:34Z</time></trkpt>
      <trkpt lat="18.469683" lon="-69.927664"><ele>20</ele><time>2026-09-29T13:07:36Z</time></trkpt>
      <trkpt lat="18.469784" lon="-69.927393"><ele>20</ele><time>2026-09-29T13:07:38Z</time></trkpt>
      <trkpt lat="18.469882" lon="-69.927124"><ele>20</ele><time>2026-09-29T13:07:40Z</time></trkpt>
      <trkpt lat="18.469978" lon="-69.926856"><ele>20</ele><time>2026-09-29T13:07:42Z</time></trkpt>
      <trkpt lat="18.470072" lon="-69.926587"><ele>20</ele><time>2026-09-29T13:07:44Z</time></trkpt>
      <trkpt lat="18.470175" lon="-69.926321"><ele>20</ele><time>2026-09-29T13:07:46Z</time></trkpt>
      <trkpt lat="18.470272" lon="-69.926053"><ele>20</ele><time>2026-09-29T13:07:48Z</time></trkpt>
      <trkpt lat="18.470376" lon="-69.925785"><ele>20</ele><time>2026-09-29T13:07:50Z</time></trkpt>
      <trkpt lat="18.470477" lon="-69.925517"><ele>20</ele><time>2026-09-29T13:07:52Z</time></trkpt>
      <trkpt lat="18.470575" lon="-69.925255"><ele>20</ele><time>2026-09-29T13:07:54Z</time></trkpt>
      <trkpt lat="18.470670" lon="-69.924989"><ele>20</ele><time>2026-09-29T13:07:56Z</time></trkpt>
      <trkpt lat="18.470764" lon="-69.924714"><ele>20</ele><time>2026-09-29T13:07:58Z</time></trkpt>
      <trkpt lat="18.470865" lon="-69.924440"><ele>20</ele><time>2026-09-29T13:08:00Z</time></trkpt>
      <trkpt lat="18.470962" lon="-69.924170"><ele>20</ele><time>2026-09-29T13:08:02Z</time></trkpt>
      <trkpt lat="18.471064" lon="-69.923901"><ele>20</ele><time>2026-09-29T13:08:04Z</time></trkpt>
      <trkpt lat="18.471161" lon="-69.923625"><ele>20</ele><time>2026-09-29T13:08:06Z</time></trkpt>
      <trkpt lat="18.471262" lon="-69.923359"><ele>20</ele><time>2026-09-29T13:08:08Z</time></trkpt>
      <trkpt lat="18.471370" lon="-69.923092"><ele>20</ele><time>2026-09-29T13:08:10Z</time></trkpt>
      <trkpt lat="18.471472" lon="-69.922823"><ele>20</ele><time>2026-09-29T13:08:12Z</time></trkpt>
      <trkpt lat="18.471574" lon="-69.922557"><ele>20</ele><time>2026-09-29T13:08:14Z</time></trkpt>
      <trkpt lat="18.471651" lon="-69.922363"><ele>20</ele><time>2026-09-29T13:08:16Z</time></trkpt>
      <trkpt lat="18.471668" lon="-69.922300"><ele>20</ele><time>2026-09-29T13:08:18Z</time></trkpt>
      <trkpt lat="18.471669" lon="-69.922296"><ele>20</ele><time>2026-09-29T13:08:20Z</time></trkpt>
      <trkpt lat="18.471668" lon="-69.922300"><ele>20</ele><time>2026-09-29T13:08:22Z</time></trkpt>
      <trkpt lat="18.471670" lon="-69.922301"><ele>20</ele><time>2026-09-29T13:08:24Z</time></trkpt>
      <trkpt lat="18.471668" lon="-69.922298"><ele>20</ele><time>2026-09-29T13:08:26Z</time></trkpt>
      <trkpt lat="18.471666" lon="-69.922299"><ele>20</ele><time>2026-09-29T13:08:28Z</time></trkpt>
      <trkpt lat="18.471664" lon="-69.922295"><ele>20</ele><time>2026-09-29T13:08:30Z</time></trkpt>
      <trkpt lat="18.471666" lon="-69.922294"><ele>20</ele><time>2026-09-29T13:08:32Z</time></trkpt>
      <trkpt lat="18.471666" lon="-69.922298"><ele>20</ele><time>2026-09-29T13:08:34Z</time></trkpt>
      <trkpt lat="18.471667" lon="-69.922294"><ele>20</ele><time>2026-09-29T13:08:36Z</time></trkpt>
      <trkpt lat="18.471667" lon="-69.922295"><ele>20</ele><time>2026-09-29T13:08:38Z</time></trkpt>
      <trkpt lat="18.471666" lon="-69.922307"><ele>20</ele><time>2026-09-29T13:08:40Z</time></trkpt>
      <trkpt lat="18.471667" lon="-69.922310"><ele>20</ele><time>2026-09-29T13:08:42Z</time></trkpt>
      <trkpt lat="18.471666" lon="-69.922309"><ele>20</ele><time>2026-09-29T13:08:44Z</time></trkpt>
      <trkpt lat="18.471667" lon="-69.922308"><ele>20</ele><time>2026-09-29T13:08:46Z</time></trkpt>
      <trkpt lat="18.471663" lon="-69.922307"><ele>20</ele><time>2026-09-29T13:08:48Z</time></trkpt>
      <trkpt lat="18.471662" lon="-69.922304"><ele>20</ele><time>2026-09-29T13:08:50Z</time></trkpt>
      <trkpt lat="18.471661" lon="-69.922298"><ele>20</ele><time>2026-09-29T13:08:52Z</time></trkpt>
      <trkpt lat="18.471664" lon="-69.922300"><ele>20</ele><time>2026-09-29T13:08:54Z</time></trkpt>
      <trkpt lat="18.471659" lon="-69.922298"><ele>20</ele><time>2026-09-29T13:08:56Z</time></trkpt>
      <trkpt lat="18.471657" lon="-69.922296"><ele>20</ele><time>2026-09-29T13:08:58Z</time></trkpt>
      <trkpt lat="18.471659" lon="-69.922299"><ele>20</ele><time>2026-09-29T13:09:00Z</time></trkpt>
      <trkpt lat="18.471659" lon="-69.922297"><ele>20</ele><time>2026-09-29T13:09:02Z</time></trkpt>
      <trkpt lat="18.471665" lon="-69.922295"><ele>20</ele><time>2026-09-29T13:09:04Z</time></trkpt>
      <trkpt lat="18.471663" lon="-69.922300"><ele>20</ele><time>2026-09-29T13:09:06Z</time></trkpt>
      <trkpt lat="18.471661" lon="-69.922301"><ele>20</ele><time>2026-09-29T13:09:08Z</time></trkpt>
      <trkpt lat="18.471657" lon="-69.922310"><ele>20</ele><time>2026-09-29T13:09:10Z</time></trkpt>
      <trkpt lat="18.471657" lon="-69.922310"><ele>20</ele><time>2026-09-29T13:09:12Z</time></trkpt>
      <trkpt lat="18.471658" lon="-69.922308"><ele>20</ele><time>2026-09-29T13:09:14Z</time></trkpt>
      <trkpt lat="18.471660" lon="-69.922308"><ele>20</ele><time>2026-09-29T13:09:16Z</time></trkpt>
      <trkpt lat="18.471661" lon="-69.922304"><ele>20</ele><time>2026-09-29T13:09:18Z</time></trkpt>
      <trkpt lat="18.471663" lon="-69.922305"><ele>20</ele><time>2026-09-29T13:09:20Z</time></trkpt>
      <trkpt lat="18.471659" lon="-69.922308"><ele>20</ele><time>2026-09-29T13:09:22Z</time></trkpt>
      <trkpt lat="18.471657" lon="-69.922300"><ele>20</ele><time>2026-09-29T13:09:24Z</time></trkpt>
      <trkpt lat="18.471664" lon="-69.922306"><ele>20</ele><time>2026-09-29T13:09:26Z</time></trkpt>
      <trkpt lat="18.471661" lon="-69.922304"><ele>20</ele><time>2026-09-29T13:09:28Z</time></trkpt>
      <trkpt lat="18.471660" lon="-69.922300"><ele>20</ele><time>2026-09-29T13:09:30Z</time></trkpt>
      <trkpt lat="18.471659" lon="-69.922302"><ele>20</ele><time>2026-09-29T13:09:32Z</time></trkpt>
      <trkpt lat="18.471657" lon="-69.922304"><ele>20</ele><time>2026-09-29T13:09:34Z</time></trkpt>
      <trkpt lat="18.471652" lon="-69.922304"><ele>20</ele><time>2026-09-29T13:09:36Z</time></trkpt>
      <trkpt lat="18.471656" lon="-69.922304"><ele>20</ele><time>2026-09-29T13:09:38Z</time></trkpt>
      <trkpt lat="18.471649" lon="-69.922309"><ele>20</ele><time>2026-09-29T13:09:40Z</time></trkpt>
      <trkpt lat="18.471651" lon="-69.922306"><ele>20</ele><time>2026-09-29T13:09:42Z</time></trkpt>
      <trkpt lat="18.471656" lon="-69.922307"><ele>20</ele><time>2026-09-29T13:09:44Z</time></trkpt>
      <trkpt lat="18.471655" lon="-69.922299"><ele>20</ele><time>2026-09-29T13:09:46Z</time></trkpt>
      <trkpt lat="18.471655" lon="-69.922305"><ele>20</ele><time>2026-09-29T13:09:48Z</time></trkpt>
      <trkpt lat="18.471657" lon="-69.922302"><ele>20</ele><time>2026-09-29T13:09:50Z</time></trkpt>
      <trkpt lat="18.471661" lon="-69.922305"><ele>20</ele><time>2026-09-29T13:09:52Z</time></trkpt>
      <trkpt lat="18.471660" lon="-69.922307"><ele>20</ele><time>2026-09-29T13:09:54Z</time></trkpt>
      <trkpt lat="18.471662" lon="-69.922307"><ele>20</ele><time>2026-09-29T13:09:56Z</time></trkpt>
      <trkpt lat="18.471669" lon="-69.922304"><ele>20</ele><time>2026-09-29T13:09:58Z</time></trkpt>
      <trkpt lat="18.471669" lon="-69.922296"><ele>20</ele><time>2026-09-29T13:10:00Z</time></trkpt>
      <trkpt lat="18.471667" lon="-69.922296"><ele>20</ele><time>2026-09-29T13:10:02Z</time></trkpt>
      <trkpt lat="18.471669" lon="-69.922296"><ele>20</ele><time>2026-09-29T13:10:04Z</time></trkpt>
      <trkpt lat="18.471666" lon="-69.922296"><ele>20</ele><time>2026-09-29T13:10:06Z</time></trkpt>
      <trkpt lat="18.471662" lon="-69.922296"><ele>20</ele><time>2026-09-29T13:10:08Z</time></trkpt>
      <trkpt lat="18.471658" lon="-69.922294"><ele>20</ele><time>2026-09-29T13:10:10Z</time></trkpt>
      <trkpt lat="18.471652" lon="-69.922291"><ele>20</ele><time>2026-09-29T13:10:12Z</time></trkpt>
      <trkpt lat="18.471658" lon="-69.922290"><ele>20</ele><time>2026-09-29T13:10:14Z</time></trkpt>
      <trkpt lat="18.471659" lon="-69.922289"><ele>20</ele><time>2026-09-29T13:10:16Z</time></trkpt>
      <trkpt lat="18.471658" lon="-69.922289"><ele>20</ele><time>2026-09-29T13:10:18Z</time></trkpt>
      <trkpt lat="18.471652" lon="-69.922286"><ele>20</ele><time>2026-09-29T13:10:20Z</time></trkpt>
      <trkpt lat="18.471671" lon="-69.922231"><ele>20</ele><time>2026-09-29T13:10:22Z</time></trkpt>
      <trkpt lat="18.471715" lon="-69.922109"><ele>20</ele><time>2026-09-29T13:10:24Z</time></trkpt>
      <trkpt lat="18.471789" lon="-69.921918"><ele>20</ele><time>2026-09-29T13:10:26Z</time></trkpt>
      <trkpt lat="18.471888" lon="-69.921661"><ele>20</ele><time>2026-09-29T13:10:28Z</time></trkpt>
      <trkpt lat="18.471991" lon="-69.921389"><ele>20</ele><time>2026-09-29T13:10:30Z</time></trkpt>
      <trkpt lat="18.472098" lon="-69.921118"><ele>20</ele><time>2026-09-29T13:10:32Z</time></trkpt>
      <trkpt lat="18.472204" lon="-69.920849"><ele>20</ele><time>2026-09-29T13:10:34Z</time></trkpt>
      <trkpt lat="18.472310" lon="-69.920581"><ele>20</ele><time>2026-09-29T13:10:36Z</time></trkpt>
      <trkpt lat="18.472420" lon="-69.920315"><ele>20</ele><time>2026-09-29T13:10:38Z</time></trkpt>
      <trkpt lat="18.472529" lon="-69.920045"><ele>20</ele><time>2026-09-29T13:10:40Z</time></trkpt>
      <trkpt lat="18.472638" lon="-69.919779"><ele>20</ele><time>2026-09-29T13:10:42Z</time></trkpt>
      <trkpt lat="18.472747" lon="-69.919517"><ele>20</ele><time>2026-09-29T13:10:44Z</time></trkpt>
      <trkpt lat="18.472853" lon="-69.919247"><ele>20</ele><time>2026-09-29T13:10:46Z</time></trkpt>
      <trkpt lat="18.472956" lon="-69.918980"><ele>20</ele><time>2026-09-29T13:10:48Z</time></trkpt>
      <trkpt lat="18.473056" lon="-69.918716"><ele>20</ele><time>2026-09-29T13:10:50Z</time></trkpt>
      <trkpt lat="18.473154" lon="-69.918455"><ele>20</ele><time>2026-09-29T13:10:52Z</time></trkpt>
      <trkpt lat="18.473259" lon="-69.918187"><ele>20</ele><time>2026-09-29T13:10:54Z</time></trkpt>
      <trkpt lat="18.473364" lon="-69.917923"><ele>20</ele><time>2026-09-29T13:10:56Z</time></trkpt>
      <trkpt lat="18.473471" lon="-69.917659"><ele>20</ele><time>2026-09-29T13:10:58Z</time></trkpt>
      <trkpt lat="18.473576" lon="-69.917393"><ele>20</ele><time>2026-09-29T13:11:00Z</time></trkpt>
      <trkpt lat="18.473681" lon="-69.917121"><ele>20</ele><time>2026-09-29T13:11:02Z</time></trkpt>
      <trkpt lat="18.473782" lon="-69.916870"><ele>20</ele><time>2026-09-29T13:11:04Z</time></trkpt>
      <trkpt lat="18.473866" lon="-69.916645"><ele>20</ele><time>2026-09-29T13:11:06Z</time></trkpt>
      <trkpt lat="18.473945" lon="-69.916426"><ele>20</ele><time>2026-09-29T13:11:08Z</time></trkpt>
      <trkpt lat="18.474029" lon="-69.916209"><ele>20</ele><time>2026-09-29T13:11:10Z</time></trkpt>
      <trkpt lat="18.474114" lon="-69.915999"><ele>20</ele><time>2026-09-29T13:11:12Z</time></trkpt>
      <trkpt lat="18.474197" lon="-69.915783"><ele>20</ele><time>2026-09-29T13:11:14Z</time></trkpt>
      <trkpt lat="18.474286" lon="-69.915565"><ele>20</ele><time>2026-09-29T13:11:16Z</time></trkpt>
      <trkpt lat="18.474373" lon="-69.915350"><ele>20</ele><time>2026-09-29T13:11:18Z</time></trkpt>
      <trkpt lat="18.474451" lon="-69.915126"><ele>20</ele><time>2026-09-29T13:11:20Z</time></trkpt>
      <trkpt lat="18.474397" lon="-69.914975"><ele>20</ele><time>2026-09-29T13:11:22Z</time></trkpt>
      <trkpt lat="18.474191" lon="-69.914896"><ele>20</ele><time>2026-09-29T13:11:24Z</time></trkpt>
      <trkpt lat="18.473987" lon="-69.914812"><ele>20</ele><time>2026-09-29T13:11:26Z</time></trkpt>
      <trkpt lat="18.473772" lon="-69.914728"><ele>20</ele><time>2026-09-29T13:11:28Z</time></trkpt>
      <trkpt lat="18.473556" lon="-69.914644"><ele>20</ele><time>2026-09-29T13:11:30Z</time></trkpt>
      <trkpt lat="18.473343" lon="-69.914556"><ele>20</ele><time>2026-09-29T13:11:32Z</time></trkpt>
      <trkpt lat="18.473136" lon="-69.914470"><ele>20</ele><time>2026-09-29T13:11:34Z</time></trkpt>
      <trkpt lat="18.472925" lon="-69.914379"><ele>20</ele><time>2026-09-29T13:11:36Z</time></trkpt>
      <trkpt lat="18.472718" lon="-69.914296"><ele>20</ele><time>2026-09-29T13:11:38Z</time></trkpt>
      <trkpt lat="18.472509" lon="-69.914214"><ele>20</ele><time>2026-09-29T13:11:40Z</time></trkpt>
      <trkpt lat="18.472301" lon="-69.914134"><ele>20</ele><time>2026-09-29T13:11:42Z</time></trkpt>
      <trkpt lat="18.472092" lon="-69.914048"><ele>20</ele><time>2026-09-29T13:11:44Z</time></trkpt>
      <trkpt lat="18.471877" lon="-69.913969"><ele>20</ele><time>2026-09-29T13:11:46Z</time></trkpt>
      <trkpt lat="18.471669" lon="-69.913882"><ele>20</ele><time>2026-09-29T13:11:48Z</time></trkpt>
      <trkpt lat="18.471458" lon="-69.913801"><ele>20</ele><time>2026-09-29T13:11:50Z</time></trkpt>
      <trkpt lat="18.471247" lon="-69.913718"><ele>20</ele><time>2026-09-29T13:11:52Z</time></trkpt>
      <trkpt lat="18.471039" lon="-69.913635"><ele>20</ele><time>2026-09-29T13:11:54Z</time></trkpt>
      <trkpt lat="18.470828" lon="-69.913544"><ele>20</ele><time>2026-09-29T13:11:56Z</time></trkpt>
      <trkpt lat="18.470615" lon="-69.913459"><ele>20</ele><time>2026-09-29T13:11:58Z</time></trkpt>
      <trkpt lat="18.470408" lon="-69.913369"><ele>20</ele><time>2026-09-29T13:12:00Z</time></trkpt>
      <trkpt lat="18.470197" lon="-69.913285"><ele>20</ele><time>2026-09-29T13:12:02Z</time></trkpt>
      <trkpt lat="18.469986" lon="-69.913197"><ele>20</ele><time>2026-09-29T13:12:04Z</time></trkpt>
      <trkpt lat="18.469779" lon="-69.913118"><ele>20</ele><time>2026-09-29T13:12:06Z</time></trkpt>
      <trkpt lat="18.469568" lon="-69.913031"><ele>20</ele><time>2026-09-29T13:12:08Z</time></trkpt>
      <trkpt lat="18.469357" lon="-69.912949"><ele>20</ele><time>2026-09-29T13:12:10Z</time></trkpt>
      <trkpt lat="18.469149" lon="-69.912859"><ele>20</ele><time>2026-09-29T13:12:12Z</time></trkpt>
      <trkpt lat="18.468939" lon="-69.912766"><ele>20</ele><time>2026-09-29T13:12:14Z</time></trkpt>
      <trkpt lat="18.468736" lon="-69.912677"><ele>20</ele><time>2026-09-29T13:12:16Z</time></trkpt>
      <trkpt lat="18.468523" lon="-69.912584"><ele>20</ele><time>2026-09-29T13:12:18Z</time></trkpt>
      <trkpt lat="18.468313" lon="-69.912492"><ele>20</ele><time>2026-09-29T13:12:20Z</time></trkpt>
      <trkpt lat="18.468103" lon="-69.912409"><ele>20</ele><time>2026-09-29T13:12:22Z</time></trkpt>
      <trkpt lat="18.467894" lon="-69.912320"><ele>20</ele><time>2026-09-29T13:12:24Z</time></trkpt>
      <trkpt lat="18.467690" lon="-69.912229"><ele>20</ele><time>2026-09-29T13:12:26Z</time></trkpt>
      <trkpt lat="18.467487" lon="-69.912141"><ele>20</ele><time>2026-09-29T13:12:28Z</time></trkpt>
      <trkpt lat="18.467280" lon="-69.912052"><ele>20</ele><time>2026-09-29T13:12:30Z</time></trkpt>
      <trkpt lat="18.467071" lon="-69.911965"><ele>20</ele><time>2026-09-29T13:12:32Z</time></trkpt>
      <trkpt lat="18.466858" lon="-69.911873"><ele>20</ele><time>2026-09-29T13:12:34Z</time></trkpt>
      <trkpt lat="18.466651" lon="-69.911783"><ele>20</ele><time>2026-09-29T13:12:36Z</time></trkpt>
      <trkpt lat="18.466441" lon="-69.911686"><ele>20</ele><time>2026-09-29T13:12:38Z</time></trkpt>
      <trkpt lat="18.466231" lon="-69.911596"><ele>20</ele><time>2026-09-29T13:12:40Z</time></trkpt>
      <trkpt lat="18.466028" lon="-69.911505"><ele>20</ele><time>2026-09-29T13:12:42Z</time></trkpt>
      <trkpt lat="18.465816" lon="-69.911418"><ele>20</ele><time>2026-09-29T13:12:44Z</time></trkpt>
      <trkpt lat="18.465615" lon="-69.911328"><ele>20</ele><time>2026-09-29T13:12:46Z</time></trkpt>
      <trkpt lat="18.465409" lon="-69.911237"><ele>20</ele><time>2026-09-29T13:12:48Z</time></trkpt>
      <trkpt lat="18.465201" lon="-69.911146"><ele>20</ele><time>2026-09-29T13:12:50Z</time></trkpt>
      <trkpt lat="18.464996" lon="-69.911054"><ele>20</ele><time>2026-09-29T13:12:52Z</time></trkpt>
      <trkpt lat="18.464794" lon="-69.910963"><ele>20</ele><time>2026-09-29T13:12:54Z</time></trkpt>
      <trkpt lat="18.464605" lon="-69.910876"><ele>20</ele><time>2026-09-29T13:12:56Z</time></trkpt>
      <trkpt lat="18.464444" lon="-69.910804"><ele>20</ele><time>2026-09-29T13:12:58Z</time></trkpt>
      <trkpt lat="18.464280" lon="-69.910736"><ele>20</ele><time>2026-09-29T13:13:00Z</time></trkpt>
      <trkpt lat="18.464115" lon="-69.910668"><ele>20</ele><time>2026-09-29T13:13:02Z</time></trkpt>
      <trkpt lat="18.463949" lon="-69.910599"><ele>20</ele><time>2026-09-29T13:13:04Z</time></trkpt>
      <trkpt lat="18.463784" lon="-69.910528"><ele>20</ele><time>2026-09-29T13:13:06Z</time></trkpt>
      <trkpt lat="18.463621" lon="-69.910457"><ele>20</ele><time>2026-09-29T13:13:08Z</time></trkpt>
      <trkpt lat="18.463457" lon="-69.910385"><ele>20</ele><time>2026-09-29T13:13:10Z</time></trkpt>
      <trkpt lat="18.463296" lon="-69.910316"><ele>20</ele><time>2026-09-29T13:13:12Z</time></trkpt>
      <trkpt lat="18.463133" lon="-69.910247"><ele>20</ele><time>2026-09-29T13:13:14Z</time></trkpt>
      <trkpt lat="18.462969" lon="-69.910176"><ele>20</ele><time>2026-09-29T13:13:16Z</time></trkpt>
      <trkpt lat="18.462805" lon="-69.910116"><ele>20</ele><time>2026-09-29T13:13:18Z</time></trkpt>
      <trkpt lat="18.462642" lon="-69.910055"><ele>20</ele><time>2026-09-29T13:13:20Z</time></trkpt>
      <trkpt lat="18.462477" lon="-69.910002"><ele>20</ele><time>2026-09-29T13:13:22Z</time></trkpt>
      <trkpt lat="18.462313" lon="-69.909940"><ele>20</ele><time>2026-09-29T13:13:24Z</time></trkpt>
      <trkpt lat="18.462147" lon="-69.909876"><ele>20</ele><time>2026-09-29T13:13:26Z</time></trkpt>
      <trkpt lat="18.461978" lon="-69.909816"><ele>20</ele><time>2026-09-29T13:13:28Z</time></trkpt>
      <trkpt lat="18.461811" lon="-69.909754"><ele>20</ele><time>2026-09-29T13:13:30Z</time></trkpt>
      <trkpt lat="18.461645" lon="-69.909692"><ele>20</ele><time>2026-09-29T13:13:32Z</time></trkpt>
      <trkpt lat="18.461482" lon="-69.909627"><ele>20</ele><time>2026-09-29T13:13:34Z</time></trkpt>
      <trkpt lat="18.461322" lon="-69.909564"><ele>20</ele><time>2026-09-29T13:13:36Z</time></trkpt>
      <trkpt lat="18.461157" lon="-69.909501"><ele>20</ele><time>2026-09-29T13:13:38Z</time></trkpt>
      <trkpt lat="18.460991" lon="-69.909437"><ele>20</ele><time>2026-09-29T13:13:40Z</time></trkpt>
      <trkpt lat="18.460831" lon="-69.909372"><ele>20</ele><time>2026-09-29T13:13:42Z</time></trkpt>
      <trkpt lat="18.460664" lon="-69.909312"><ele>20</ele><time>2026-09-29T13:13:44Z</time></trkpt>
      <trkpt lat="18.460502" lon="-69.909251"><ele>20</ele><time>2026-09-29T13:13:46Z</time></trkpt>
      <trkpt lat="18.460342" lon="-69.909188"><ele>20</ele><time>2026-09-29T13:13:48Z</time></trkpt>
      <trkpt lat="18.460180" lon="-69.909127"><ele>20</ele><time>2026-09-29T13:13:50Z</time></trkpt>
      <trkpt lat="18.460013" lon="-69.909067"><ele>20</ele><time>2026-09-29T13:13:52Z</time></trkpt>
      <trkpt lat="18.459850" lon="-69.909006"><ele>20</ele><time>2026-09-29T13:13:54Z</time></trkpt>
      <trkpt lat="18.459784" lon="-69.909134"><ele>20</ele><time>2026-09-29T13:13:56Z</time></trkpt>
      <trkpt lat="18.459755" lon="-69.909317"><ele>20</ele><time>2026-09-29T13:13:58Z</time></trkpt>
      <trkpt lat="18.459720" lon="-69.909491"><ele>20</ele><time>2026-09-29T13:14:00Z</time></trkpt>
      <trkpt lat="18.459682" lon="-69.909670"><ele>20</ele><time>2026-09-29T13:14:02Z</time></trkpt>
      <trkpt lat="18.459656" lon="-69.909855"><ele>20</ele><time>2026-09-29T13:14:04Z</time></trkpt>
      <trkpt lat="18.459625" lon="-69.910037"><ele>20</ele><time>2026-09-29T13:14:06Z</time></trkpt>
      <trkpt lat="18.459586" lon="-69.910216"><ele>20</ele><time>2026-09-29T13:14:08Z</time></trkpt>
      <trkpt lat="18.459545" lon="-69.910401"><ele>20</ele><time>2026-09-29T13:14:10Z</time></trkpt>
      <trkpt lat="18.459511" lon="-69.910584"><ele>20</ele><time>2026-09-29T13:14:12Z</time></trkpt>
      <trkpt lat="18.459475" lon="-69.910765"><ele>20</ele><time>2026-09-29T13:14:14Z</time></trkpt>
      <trkpt lat="18.459434" lon="-69.910946"><ele>20</ele><time>2026-09-29T13:14:16Z</time></trkpt>
      <trkpt lat="18.459402" lon="-69.911131"><ele>20</ele><time>2026-09-29T13:14:18Z</time></trkpt>
      <trkpt lat="18.459373" lon="-69.911313"><ele>20</ele><time>2026-09-29T13:14:20Z</time></trkpt>
      <trkpt lat="18.459339" lon="-69.911499"><ele>20</ele><time>2026-09-29T13:14:22Z</time></trkpt>
      <trkpt lat="18.459310" lon="-69.911679"><ele>20</ele><time>2026-09-29T13:14:24Z</time></trkpt>
      <trkpt lat="18.459276" lon="-69.911860"><ele>20</ele><time>2026-09-29T13:14:26Z</time></trkpt>
      <trkpt lat="18.459241" lon="-69.912037"><ele>20</ele><time>2026-09-29T13:14:28Z</time></trkpt>
      <trkpt lat="18.459209" lon="-69.912218"><ele>20</ele><time>2026-09-29T13:14:30Z</time></trkpt>
      <trkpt lat="18.459175" lon="-69.912395"><ele>20</ele><time>2026-09-29T13:14:32Z</time></trkpt>
      <trkpt lat="18.459137" lon="-69.912575"><ele>20</ele><time>2026-09-29T13:14:34Z</time></trkpt>
      <trkpt lat="18.459102" lon="-69.912763"><ele>20</ele><time>2026-09-29T13:14:36Z</time></trkpt>
      <trkpt lat="18.459067" lon="-69.912944"><ele>20</ele><time>2026-09-29T13:14:38Z</time></trkpt>
      <trkpt lat="18.459032" lon="-69.913122"><ele>20</ele><time>2026-09-29T13:14:40Z</time></trkpt>
      <trkpt lat="18.459002" lon="-69.913308"><ele>20</ele><time>2026-09-29T13:14:42Z</time></trkpt>
      <trkpt lat="18.458971" lon="-69.913485"><ele>20</ele><time>2026-09-29T13:14:44Z</time></trkpt>
      <trkpt lat="18.458933" lon="-69.913665"><ele>20</ele><time>2026-09-29T13:14:46Z</time></trkpt>
      <trkpt lat="18.458899" lon="-69.913847"><ele>20</ele><time>2026-09-29T13:14:48Z</time></trkpt>
      <trkpt lat="18.458863" lon="-69.914030"><ele>20</ele><time>2026-09-29T13:14:50Z</time></trkpt>
      <trkpt lat="18.458832" lon="-69.914212"><ele>20</ele><time>2026-09-29T13:14:52Z</time></trkpt>
      <trkpt lat="18.458804" lon="-69.914391"><ele>20</ele><time>2026-09-29T13:14:54Z</time></trkpt>
      <trkpt lat="18.458772" lon="-69.914572"><ele>20</ele><time>2026-09-29T13:14:56Z</time></trkpt>
      <trkpt lat="18.458739" lon="-69.914752"><ele>20</ele><time>2026-09-29T13:14:58Z</time></trkpt>
      <trkpt lat="18.458706" lon="-69.914934"><ele>20</ele><time>2026-09-29T13:15:00Z</time></trkpt>
      <trkpt lat="18.458674" lon="-69.915111"><ele>20</ele><time>2026-09-29T13:15:02Z</time></trkpt>
      <trkpt lat="18.458640" lon="-69.915296"><ele>20</ele><time>2026-09-29T13:15:04Z</time></trkpt>
      <trkpt lat="18.458602" lon="-69.915481"><ele>20</ele><time>2026-09-29T13:15:06Z</time></trkpt>
      <trkpt lat="18.458567" lon="-69.915638"><ele>20</ele><time>2026-09-29T13:15:08Z</time></trkpt>
      <trkpt lat="18.458556" lon="-69.915664"><ele>20</ele><time>2026-09-29T13:15:10Z</time></trkpt>
      <trkpt lat="18.458557" lon="-69.915667"><ele>20</ele><time>2026-09-29T13:15:12Z</time></trkpt>
      <trkpt lat="18.458557" lon="-69.915666"><ele>20</ele><time>2026-09-29T13:15:14Z</time></trkpt>
      <trkpt lat="18.458556" lon="-69.915665"><ele>20</ele><time>2026-09-29T13:15:16Z</time></trkpt>
      <trkpt lat="18.458560" lon="-69.915664"><ele>20</ele><time>2026-09-29T13:15:18Z</time></trkpt>
      <trkpt lat="18.458558" lon="-69.915660"><ele>20</ele><time>2026-09-29T13:15:20Z</time></trkpt>
      <trkpt lat="18.458559" lon="-69.915662"><ele>20</ele><time>2026-09-29T13:15:22Z</time></trkpt>
      <trkpt lat="18.458562" lon="-69.915657"><ele>20</ele><time>2026-09-29T13:15:24Z</time></trkpt>
      <trkpt lat="18.458560" lon="-69.915652"><ele>20</ele><time>2026-09-29T13:15:26Z</time></trkpt>
      <trkpt lat="18.458565" lon="-69.915658"><ele>20</ele><time>2026-09-29T13:15:28Z</time></trkpt>
      <trkpt lat="18.458567" lon="-69.915662"><ele>20</ele><time>2026-09-29T13:15:30Z</time></trkpt>
      <trkpt lat="18.458566" lon="-69.915657"><ele>20</ele><time>2026-09-29T13:15:32Z</time></trkpt>
      <trkpt lat="18.458566" lon="-69.915654"><ele>20</ele><time>2026-09-29T13:15:34Z</time></trkpt>
      <trkpt lat="18.458564" lon="-69.915657"><ele>20</ele><time>2026-09-29T13:15:36Z</time></trkpt>
      <trkpt lat="18.458566" lon="-69.915657"><ele>20</ele><time>2026-09-29T13:15:38Z</time></trkpt>
      <trkpt lat="18.458569" lon="-69.915659"><ele>20</ele><time>2026-09-29T13:15:40Z</time></trkpt>
      <trkpt lat="18.458570" lon="-69.915664"><ele>20</ele><time>2026-09-29T13:15:42Z</time></trkpt>
      <trkpt lat="18.458570" lon="-69.915659"><ele>20</ele><time>2026-09-29T13:15:44Z</time></trkpt>
      <trkpt lat="18.458572" lon="-69.915660"><ele>20</ele><time>2026-09-29T13:15:46Z</time></trkpt>
      <trkpt lat="18.458570" lon="-69.915660"><ele>20</ele><time>2026-09-29T13:15:48Z</time></trkpt>
      <trkpt lat="18.458570" lon="-69.915663"><ele>20</ele><time>2026-09-29T13:15:50Z</time></trkpt>
      <trkpt lat="18.458569" lon="-69.915660"><ele>20</ele><time>2026-09-29T13:15:52Z</time></trkpt>
      <trkpt lat="18.458568" lon="-69.915658"><ele>20</ele><time>2026-09-29T13:15:54Z</time></trkpt>
      <trkpt lat="18.458562" lon="-69.915660"><ele>20</ele><time>2026-09-29T13:15:56Z</time></trkpt>
      <trkpt lat="18.458562" lon="-69.915664"><ele>20</ele><time>2026-09-29T13:15:58Z</time></trkpt>
      <trkpt lat="18.458560" lon="-69.915659"><ele>20</ele><time>2026-09-29T13:16:00Z</time></trkpt>
      <trkpt lat="18.458562" lon="-69.915656"><ele>20</ele><time>2026-09-29T13:16:02Z</time></trkpt>
      <trkpt lat="18.458561" lon="-69.915658"><ele>20</ele><time>2026-09-29T13:16:04Z</time></trkpt>
      <trkpt lat="18.458559" lon="-69.915655"><ele>20</ele><time>2026-09-29T13:16:06Z</time></trkpt>
      <trkpt lat="18.458561" lon="-69.915653"><ele>20</ele><time>2026-09-29T13:16:08Z</time></trkpt>
      <trkpt lat="18.458555" lon="-69.915655"><ele>20</ele><time>2026-09-29T13:16:10Z</time></trkpt>
      <trkpt lat="18.458559" lon="-69.915656"><ele>20</ele><time>2026-09-29T13:16:12Z</time></trkpt>
      <trkpt lat="18.458560" lon="-69.915660"><ele>20</ele><time>2026-09-29T13:16:14Z</time></trkpt>
      <trkpt lat="18.458566" lon="-69.915662"><ele>20</ele><time>2026-09-29T13:16:16Z</time></trkpt>
      <trkpt lat="18.458567" lon="-69.915668"><ele>20</ele><time>2026-09-29T13:16:18Z</time></trkpt>
      <trkpt lat="18.458559" lon="-69.915663"><ele>20</ele><time>2026-09-29T13:16:20Z</time></trkpt>
      <trkpt lat="18.458559" lon="-69.915659"><ele>20</ele><time>2026-09-29T13:16:22Z</time></trkpt>
      <trkpt lat="18.458559" lon="-69.915652"><ele>20</ele><time>2026-09-29T13:16:24Z</time></trkpt>
      <trkpt lat="18.458559" lon="-69.915656"><ele>20</ele><time>2026-09-29T13:16:26Z</time></trkpt>
      <trkpt lat="18.458556" lon="-69.915659"><ele>20</ele><time>2026-09-29T13:16:28Z</time></trkpt>
      <trkpt lat="18.458553" lon="-69.915660"><ele>20</ele><time>2026-09-29T13:16:30Z</time></trkpt>
      <trkpt lat="18.458564" lon="-69.915656"><ele>20</ele><time>2026-09-29T13:16:32Z</time></trkpt>
      <trkpt lat="18.458569" lon="-69.915664"><ele>20</ele><time>2026-09-29T13:16:34Z</time></trkpt>
      <trkpt lat="18.458570" lon="-69.915660"><ele>20</ele><time>2026-09-29T13:16:36Z</time></trkpt>
      <trkpt lat="18.458570" lon="-69.915651"><ele>20</ele><time>2026-09-29T13:16:38Z</time></trkpt>
      <trkpt lat="18.458567" lon="-69.915654"><ele>20</ele><time>2026-09-29T13:16:40Z</time></trkpt>
      <trkpt lat="18.458566" lon="-69.915653"><ele>20</ele><time>2026-09-29T13:16:42Z</time></trkpt>
      <trkpt lat="18.458570" lon="-69.915656"><ele>20</ele><time>2026-09-29T13:16:44Z</time></trkpt>
      <trkpt lat="18.458568" lon="-69.915659"><ele>20</ele><time>2026-09-29T13:16:46Z</time></trkpt>
      <trkpt lat="18.458569" lon="-69.915659"><ele>20</ele><time>2026-09-29T13:16:48Z</time></trkpt>
      <trkpt lat="18.458569" lon="-69.915657"><ele>20</ele><time>2026-09-29T13:16:50Z</time></trkpt>
      <trkpt lat="18.458574" lon="-69.915660"><ele>20</ele><time>2026-09-29T13:16:52Z</time></trkpt>
      <trkpt lat="18.458579" lon="-69.915659"><ele>20</ele><time>2026-09-29T13:16:54Z</time></trkpt>
      <trkpt lat="18.458578" lon="-69.915660"><ele>20</ele><time>2026-09-29T13:16:56Z</time></trkpt>
      <trkpt lat="18.458578" lon="-69.915658"><ele>20</ele><time>2026-09-29T13:16:58Z</time></trkpt>
      <trkpt lat="18.458575" lon="-69.915661"><ele>20</ele><time>2026-09-29T13:17:00Z</time></trkpt>
      <trkpt lat="18.458578" lon="-69.915663"><ele>20</ele><time>2026-09-29T13:17:02Z</time></trkpt>
      <trkpt lat="18.458574" lon="-69.915661"><ele>20</ele><time>2026-09-29T13:17:04Z</time></trkpt>
      <trkpt lat="18.458574" lon="-69.915665"><ele>20</ele><time>2026-09-29T13:17:06Z</time></trkpt>
      <trkpt lat="18.458572" lon="-69.915662"><ele>20</ele><time>2026-09-29T13:17:08Z</time></trkpt>
      <trkpt lat="18.458573" lon="-69.915667"><ele>20</ele><time>2026-09-29T13:17:10Z</time></trkpt>
      <trkpt lat="18.458569" lon="-69.915668"><ele>20</ele><time>2026-09-29T13:17:12Z</time></trkpt>
      <trkpt lat="18.458562" lon="-69.915669"><ele>20</ele><time>2026-09-29T13:17:14Z</time></trkpt>
      <trkpt lat="18.458564" lon="-69.915666"><ele>20</ele><time>2026-09-29T13:17:16Z</time></trkpt>
      <trkpt lat="18.458563" lon="-69.915662"><ele>20</ele><time>2026-09-29T13:17:18Z</time></trkpt>
      <trkpt lat="18.458566" lon="-69.915658"><ele>20</ele><time>2026-09-29T13:17:20Z</time></trkpt>
      <trkpt lat="18.458568" lon="-69.915659"><ele>20</ele><time>2026-09-29T13:17:22Z</time></trkpt>
      <trkpt lat="18.458566" lon="-69.915663"><ele>20</ele><time>2026-09-29T13:17:24Z</time></trkpt>
      <trkpt lat="18.458566" lon="-69.915668"><ele>20</ele><time>2026-09-29T13:17:26Z</time></trkpt>
      <trkpt lat="18.458568" lon="-69.915668"><ele>20</ele><time>2026-09-29T13:17:28Z</time></trkpt>
      <trkpt lat="18.458566" lon="-69.915673"><ele>20</ele><time>2026-09-29T13:17:30Z</time></trkpt>
      <trkpt lat="18.458559" lon="-69.915678"><ele>20</ele><time>2026-09-29T13:17:32Z</time></trkpt>
      <trkpt lat="18.458562" lon="-69.915677"><ele>20</ele><time>2026-09-29T13:17:34Z</time></trkpt>
      <trkpt lat="18.458561" lon="-69.915675"><ele>20</ele><time>2026-09-29T13:17:36Z</time></trkpt>
      <trkpt lat="18.458567" lon="-69.915672"><ele>20</ele><time>2026-09-29T13:17:38Z</time></trkpt>
      <trkpt lat="18.458557" lon="-69.915670"><ele>20</ele><time>2026-09-29T13:17:40Z</time></trkpt>
      <trkpt lat="18.458558" lon="-69.915663"><ele>20</ele><time>2026-09-29T13:17:42Z</time></trkpt>
      <trkpt lat="18.458554" lon="-69.915660"><ele>20</ele><time>2026-09-29T13:17:44Z</time></trkpt>
      <trkpt lat="18.458555" lon="-69.915662"><ele>20</ele><time>2026-09-29T13:17:46Z</time></trkpt>
      <trkpt lat="18.458557" lon="-69.915657"><ele>20</ele><time>2026-09-29T13:17:48Z</time></trkpt>
      <trkpt lat="18.458555" lon="-69.915659"><ele>20</ele><time>2026-09-29T13:17:50Z</time></trkpt>
      <trkpt lat="18.458561" lon="-69.915671"><ele>20</ele><time>2026-09-29T13:17:52Z</time></trkpt>
      <trkpt lat="18.458563" lon="-69.915672"><ele>20</ele><time>2026-09-29T13:17:54Z</time></trkpt>
      <trkpt lat="18.458566" lon="-69.915662"><ele>20</ele><time>2026-09-29T13:17:56Z</time></trkpt>
      <trkpt lat="18.458572" lon="-69.915662"><ele>20</ele><time>2026-09-29T13:17:58Z</time></trkpt>
      <trkpt lat="18.458571" lon="-69.915667"><ele>20</ele><time>2026-09-29T13:18:00Z</time></trkpt>
      <trkpt lat="18.458571" lon="-69.915663"><ele>20</ele><time>2026-09-29T13:18:02Z</time></trkpt>
      <trkpt lat="18.458573" lon="-69.915664"><ele>20</ele><time>2026-09-29T13:18:04Z</time></trkpt>
      <trkpt lat="18.458572" lon="-69.915665"><ele>20</ele><time>2026-09-29T13:18:06Z</time></trkpt>
      <trkpt lat="18.458573" lon="-69.915667"><ele>20</ele><time>2026-09-29T13:18:08Z</time></trkpt>
      <trkpt lat="18.458571" lon="-69.915666"><ele>20</ele><time>2026-09-29T13:18:10Z</time></trkpt>
      <trkpt lat="18.458579" lon="-69.915664"><ele>20</ele><time>2026-09-29T13:18:12Z</time></trkpt>
      <trkpt lat="18.458577" lon="-69.915658"><ele>20</ele><time>2026-09-29T13:18:14Z</time></trkpt>
      <trkpt lat="18.458573" lon="-69.915654"><ele>20</ele><time>2026-09-29T13:18:16Z</time></trkpt>
      <trkpt lat="18.458573" lon="-69.915656"><ele>20</ele><time>2026-09-29T13:18:18Z</time></trkpt>
      <trkpt lat="18.458571" lon="-69.915657"><ele>20</ele><time>2026-09-29T13:18:20Z</time></trkpt>
      <trkpt lat="18.458570" lon="-69.915655"><ele>20</ele><time>2026-09-29T13:18:22Z</time></trkpt>
      <trkpt lat="18.458576" lon="-69.915656"><ele>20</ele><time>2026-09-29T13:18:24Z</time></trkpt>
      <trkpt lat="18.458575" lon="-69.915656"><ele>20</ele><time>2026-09-29T13:18:26Z</time></trkpt>
      <trkpt lat="18.458573" lon="-69.915657"><ele>20</ele><time>2026-09-29T13:18:28Z</time></trkpt>
      <trkpt lat="18.458575" lon="-69.915654"><ele>20</ele><time>2026-09-29T13:18:30Z</time></trkpt>
      <trkpt lat="18.458573" lon="-69.915655"><ele>20</ele><time>2026-09-29T13:18:32Z</time></trkpt>
      <trkpt lat="18.458569" lon="-69.915655"><ele>20</ele><time>2026-09-29T13:18:34Z</time></trkpt>
      <trkpt lat="18.458567" lon="-69.915656"><ele>20</ele><time>2026-09-29T13:18:36Z</time></trkpt>
      <trkpt lat="18.458563" lon="-69.915651"><ele>20</ele><time>2026-09-29T13:18:38Z</time></trkpt>
      <trkpt lat="18.458556" lon="-69.915657"><ele>20</ele><time>2026-09-29T13:18:40Z</time></trkpt>
      <trkpt lat="18.458551" lon="-69.915660"><ele>20</ele><time>2026-09-29T13:18:42Z</time></trkpt>
      <trkpt lat="18.458553" lon="-69.915654"><ele>20</ele><time>2026-09-29T13:18:44Z</time></trkpt>
      <trkpt lat="18.458557" lon="-69.915651"><ele>20</ele><time>2026-09-29T13:18:46Z</time></trkpt>
      <trkpt lat="18.458561" lon="-69.915651"><ele>20</ele><time>2026-09-29T13:18:48Z</time></trkpt>
      <trkpt lat="18.458560" lon="-69.915644"><ele>20</ele><time>2026-09-29T13:18:50Z</time></trkpt>
      <trkpt lat="18.458563" lon="-69.915650"><ele>20</ele><time>2026-09-29T13:18:52Z</time></trkpt>
      <trkpt lat="18.458564" lon="-69.915655"><ele>20</ele><time>2026-09-29T13:18:54Z</time></trkpt>
      <trkpt lat="18.458565" lon="-69.915650"><ele>20</ele><time>2026-09-29T13:18:56Z</time></trkpt>
      <trkpt lat="18.458564" lon="-69.915649"><ele>20</ele><time>2026-09-29T13:18:58Z</time></trkpt>
      <trkpt lat="18.458562" lon="-69.915649"><ele>20</ele><time>2026-09-29T13:19:00Z</time></trkpt>
      <trkpt lat="18.458568" lon="-69.915651"><ele>20</ele><time>2026-09-29T13:19:02Z</time></trkpt>
      <trkpt lat="18.458570" lon="-69.915654"><ele>20</ele><time>2026-09-29T13:19:04Z</time></trkpt>
      <trkpt lat="18.458568" lon="-69.915651"><ele>20</ele><time>2026-09-29T13:19:06Z</time></trkpt>
      <trkpt lat="18.458569" lon="-69.915648"><ele>20</ele><time>2026-09-29T13:19:08Z</time></trkpt>
      <trkpt lat="18.458568" lon="-69.915647"><ele>20</ele><time>2026-09-29T13:19:10Z</time></trkpt>
      <trkpt lat="18.458567" lon="-69.915644"><ele>20</ele><time>2026-09-29T13:19:12Z</time></trkpt>
      <trkpt lat="18.458570" lon="-69.915643"><ele>20</ele><time>2026-09-29T13:19:14Z</time></trkpt>
      <trkpt lat="18.458565" lon="-69.915644"><ele>20</ele><time>2026-09-29T13:19:16Z</time></trkpt>
      <trkpt lat="18.458564" lon="-69.915646"><ele>20</ele><time>2026-09-29T13:19:18Z</time></trkpt>
      <trkpt lat="18.458572" lon="-69.915643"><ele>20</ele><time>2026-09-29T13:19:20Z</time></trkpt>
      <trkpt lat="18.458569" lon="-69.915641"><ele>20</ele><time>2026-09-29T13:19:22Z</time></trkpt>
      <trkpt lat="18.458569" lon="-69.915639"><ele>20</ele><time>2026-09-29T13:19:24Z</time></trkpt>
      <trkpt lat="18.458563" lon="-69.915644"><ele>20</ele><time>2026-09-29T13:19:26Z</time></trkpt>
      <trkpt lat="18.458554" lon="-69.915646"><ele>20</ele><time>2026-09-29T13:19:28Z</time></trkpt>
      <trkpt lat="18.458555" lon="-69.915642"><ele>20</ele><time>2026-09-29T13:19:30Z</time></trkpt>
      <trkpt lat="18.458555" lon="-69.915641"><ele>20</ele><time>2026-09-29T13:19:32Z</time></trkpt>
      <trkpt lat="18.458561" lon="-69.915642"><ele>20</ele><time>2026-09-29T13:19:34Z</time></trkpt>
      <trkpt lat="18.458562" lon="-69.915639"><ele>20</ele><time>2026-09-29T13:19:36Z</time></trkpt>
      <trkpt lat="18.458564" lon="-69.915644"><ele>20</ele><time>2026-09-29T13:19:38Z</time></trkpt>
      <trkpt lat="18.458565" lon="-69.915648"><ele>20</ele><time>2026-09-29T13:19:40Z</time></trkpt>
      <trkpt lat="18.458566" lon="-69.915647"><ele>20</ele><time>2026-09-29T13:19:42Z</time></trkpt>
      <trkpt lat="18.458563" lon="-69.915650"><ele>20</ele><time>2026-09-29T13:19:44Z</time></trkpt>
      <trkpt lat="18.458561" lon="-69.915653"><ele>20</ele><time>2026-09-29T13:19:46Z</time></trkpt>
      <trkpt lat="18.458566" lon="-69.915654"><ele>20</ele><time>2026-09-29T13:19:48Z</time></trkpt>
      <trkpt lat="18.458564" lon="-69.915651"><ele>20</ele><time>2026-09-29T13:19:50Z</time></trkpt>
      <trkpt lat="18.458571" lon="-69.915650"><ele>20</ele><time>2026-09-29T13:19:52Z</time></trkpt>
      <trkpt lat="18.458568" lon="-69.915650"><ele>20</ele><time>2026-09-29T13:19:54Z</time></trkpt>
      <trkpt lat="18.458567" lon="-69.915651"><ele>20</ele><time>2026-09-29T13:19:56Z</time></trkpt>
      <trkpt lat="18.458570" lon="-69.915648"><ele>20</ele><time>2026-09-29T13:19:58Z</time></trkpt>
      <trkpt lat="18.458568" lon="-69.915649"><ele>20</ele><time>2026-09-29T13:20:00Z</time></trkpt>
      <trkpt lat="18.458571" lon="-69.915655"><ele>20</ele><time>2026-09-29T13:20:02Z</time></trkpt>
      <trkpt lat="18.458568" lon="-69.915648"><ele>20</ele><time>2026-09-29T13:20:04Z</time></trkpt>
      <trkpt lat="18.458569" lon="-69.915644"><ele>20</ele><time>2026-09-29T13:20:06Z</time></trkpt>
      <trkpt lat="18.458567" lon="-69.915642"><ele>20</ele><time>2026-09-29T13:20:08Z</time></trkpt>
      <trkpt lat="18.458568" lon="-69.915645"><ele>20</ele><time>2026-09-29T13:20:10Z</time></trkpt>
      <trkpt lat="18.458564" lon="-69.915665"><ele>20</ele><time>2026-09-29T13:20:12Z</time></trkpt>
      <trkpt lat="18.458548" lon="-69.915762"><ele>20</ele><time>2026-09-29T13:20:14Z</time></trkpt>
      <trkpt lat="18.458520" lon="-69.915925"><ele>20</ele><time>2026-09-29T13:20:16Z</time></trkpt>
      <trkpt lat="18.458489" lon="-69.916105"><ele>20</ele><time>2026-09-29T13:20:18Z</time></trkpt>
      <trkpt lat="18.458452" lon="-69.916286"><ele>20</ele><time>2026-09-29T13:20:20Z</time></trkpt>
      <trkpt lat="18.458416" lon="-69.916470"><ele>20</ele><time>2026-09-29T13:20:22Z</time></trkpt>
      <trkpt lat="18.458385" lon="-69.916660"><ele>20</ele><time>2026-09-29T13:20:24Z</time></trkpt>
      <trkpt lat="18.458357" lon="-69.916840"><ele>20</ele><time>2026-09-29T13:20:26Z</time></trkpt>
      <trkpt lat="18.458322" lon="-69.917020"><ele>20</ele><time>2026-09-29T13:20:28Z</time></trkpt>
      <trkpt lat="18.458285" lon="-69.917202"><ele>20</ele><time>2026-09-29T13:20:30Z</time></trkpt>
      <trkpt lat="18.458260" lon="-69.917377"><ele>20</ele><time>2026-09-29T13:20:32Z</time></trkpt>
      <trkpt lat="18.458230" lon="-69.917562"><ele>20</ele><time>2026-09-29T13:20:34Z</time></trkpt>
      <trkpt lat="18.458199" lon="-69.917742"><ele>20</ele><time>2026-09-29T13:20:36Z</time></trkpt>
      <trkpt lat="18.458163" lon="-69.917927"><ele>20</ele><time>2026-09-29T13:20:38Z</time></trkpt>
      <trkpt lat="18.458130" lon="-69.918110"><ele>20</ele><time>2026-09-29T13:20:40Z</time></trkpt>
      <trkpt lat="18.458100" lon="-69.918291"><ele>20</ele><time>2026-09-29T13:20:42Z</time></trkpt>
      <trkpt lat="18.458066" lon="-69.918473"><ele>20</ele><time>2026-09-29T13:20:44Z</time></trkpt>
      <trkpt lat="18.458033" lon="-69.918657"><ele>20</ele><time>2026-09-29T13:20:46Z</time></trkpt>
      <trkpt lat="18.458002" lon="-69.918837"><ele>20</ele><time>2026-09-29T13:20:48Z</time></trkpt>
      <trkpt lat="18.457978" lon="-69.919020"><ele>20</ele><time>2026-09-29T13:20:50Z</time></trkpt>
      <trkpt lat="18.457949" lon="-69.919199"><ele>20</ele><time>2026-09-29T13:20:52Z</time></trkpt>
      <trkpt lat="18.457917" lon="-69.919377"><ele>20</ele><time>2026-09-29T13:20:54Z</time></trkpt>
      <trkpt lat="18.457882" lon="-69.919556"><ele>20</ele><time>2026-09-29T13:20:56Z</time></trkpt>
      <trkpt lat="18.457854" lon="-69.919742"><ele>20</ele><time>2026-09-29T13:20:58Z</time></trkpt>
      <trkpt lat="18.457822" lon="-69.919925"><ele>20</ele><time>2026-09-29T13:21:00Z</time></trkpt>
      <trkpt lat="18.457792" lon="-69.920109"><ele>20</ele><time>2026-09-29T13:21:02Z</time></trkpt>
      <trkpt lat="18.457754" lon="-69.920288"><ele>20</ele><time>2026-09-29T13:21:04Z</time></trkpt>
      <trkpt lat="18.457721" lon="-69.920467"><ele>20</ele><time>2026-09-29T13:21:06Z</time></trkpt>
      <trkpt lat="18.457687" lon="-69.920647"><ele>20</ele><time>2026-09-29T13:21:08Z</time></trkpt>
      <trkpt lat="18.457655" lon="-69.920827"><ele>20</ele><time>2026-09-29T13:21:10Z</time></trkpt>
      <trkpt lat="18.457626" lon="-69.921014"><ele>20</ele><time>2026-09-29T13:21:12Z</time></trkpt>
      <trkpt lat="18.457593" lon="-69.921196"><ele>20</ele><time>2026-09-29T13:21:14Z</time></trkpt>
      <trkpt lat="18.457554" lon="-69.921399"><ele>20</ele><time>2026-09-29T13:21:16Z</time></trkpt>
      <trkpt lat="18.457513" lon="-69.921627"><ele>20</ele><time>2026-09-29T13:21:18Z</time></trkpt>
      <trkpt lat="18.457469" lon="-69.921860"><ele>20</ele><time>2026-09-29T13:21:20Z</time></trkpt>
      <trkpt lat="18.457426" lon="-69.922089"><ele>20</ele><time>2026-09-29T13:21:22Z</time></trkpt>
      <trkpt lat="18.457388" lon="-69.922320"><ele>20</ele><time>2026-09-29T13:21:24Z</time></trkpt>
      <trkpt lat="18.457348" lon="-69.922553"><ele>20</ele><time>2026-09-29T13:21:26Z</time></trkpt>
      <trkpt lat="18.457305" lon="-69.922784"><ele>20</ele><time>2026-09-29T13:21:28Z</time></trkpt>
      <trkpt lat="18.457261" lon="-69.923019"><ele>20</ele><time>2026-09-29T13:21:30Z</time></trkpt>
      <trkpt lat="18.457221" lon="-69.923253"><ele>20</ele><time>2026-09-29T13:21:32Z</time></trkpt>
      <trkpt lat="18.457181" lon="-69.923484"><ele>20</ele><time>2026-09-29T13:21:34Z</time></trkpt>
      <trkpt lat="18.457139" lon="-69.923721"><ele>20</ele><time>2026-09-29T13:21:36Z</time></trkpt>
      <trkpt lat="18.457097" lon="-69.923954"><ele>20</ele><time>2026-09-29T13:21:38Z</time></trkpt>
      <trkpt lat="18.457051" lon="-69.924182"><ele>20</ele><time>2026-09-29T13:21:40Z</time></trkpt>
      <trkpt lat="18.457010" lon="-69.924418"><ele>20</ele><time>2026-09-29T13:21:42Z</time></trkpt>
      <trkpt lat="18.456974" lon="-69.924646"><ele>20</ele><time>2026-09-29T13:21:44Z</time></trkpt>
      <trkpt lat="18.456936" lon="-69.924882"><ele>20</ele><time>2026-09-29T13:21:46Z</time></trkpt>
      <trkpt lat="18.456897" lon="-69.925116"><ele>20</ele><time>2026-09-29T13:21:48Z</time></trkpt>
      <trkpt lat="18.456855" lon="-69.925353"><ele>20</ele><time>2026-09-29T13:21:50Z</time></trkpt>
      <trkpt lat="18.456824" lon="-69.925582"><ele>20</ele><time>2026-09-29T13:21:52Z</time></trkpt>
      <trkpt lat="18.456786" lon="-69.925820"><ele>20</ele><time>2026-09-29T13:21:54Z</time></trkpt>
      <trkpt lat="18.456745" lon="-69.926052"><ele>20</ele><time>2026-09-29T13:21:56Z</time></trkpt>
      <trkpt lat="18.456707" lon="-69.926286"><ele>20</ele><time>2026-09-29T13:21:58Z</time></trkpt>
      <trkpt lat="18.456672" lon="-69.926519"><ele>20</ele><time>2026-09-29T13:22:00Z</time></trkpt>
      <trkpt lat="18.456631" lon="-69.926750"><ele>20</ele><time>2026-09-29T13:22:02Z</time></trkpt>
      <trkpt lat="18.456593" lon="-69.926984"><ele>20</ele><time>2026-09-29T13:22:04Z</time></trkpt>
      <trkpt lat="18.456562" lon="-69.927215"><ele>20</ele><time>2026-09-29T13:22:06Z</time></trkpt>
      <trkpt lat="18.456530" lon="-69.927447"><ele>20</ele><time>2026-09-29T13:22:08Z</time></trkpt>
      <trkpt lat="18.456495" lon="-69.927681"><ele>20</ele><time>2026-09-29T13:22:10Z</time></trkpt>
      <trkpt lat="18.456458" lon="-69.927913"><ele>20</ele><time>2026-09-29T13:22:12Z</time></trkpt>
      <trkpt lat="18.456420" lon="-69.928145"><ele>20</ele><time>2026-09-29T13:22:14Z</time></trkpt>
      <trkpt lat="18.456382" lon="-69.928376"><ele>20</ele><time>2026-09-29T13:22:16Z</time></trkpt>
      <trkpt lat="18.456339" lon="-69.928604"><ele>20</ele><time>2026-09-29T13:22:18Z</time></trkpt>
      <trkpt lat="18.456297" lon="-69.928837"><ele>20</ele><time>2026-09-29T13:22:20Z</time></trkpt>
      <trkpt lat="18.456257" lon="-69.929071"><ele>20</ele><time>2026-09-29T13:22:22Z</time></trkpt>
      <trkpt lat="18.456213" lon="-69.929312"><ele>20</ele><time>2026-09-29T13:22:24Z</time></trkpt>
      <trkpt lat="18.456173" lon="-69.929547"><ele>20</ele><time>2026-09-29T13:22:26Z</time></trkpt>
      <trkpt lat="18.456132" lon="-69.929784"><ele>20</ele><time>2026-09-29T13:22:28Z</time></trkpt>
      <trkpt lat="18.456096" lon="-69.930017"><ele>20</ele><time>2026-09-29T13:22:30Z</time></trkpt>
      <trkpt lat="18.456051" lon="-69.930246"><ele>20</ele><time>2026-09-29T13:22:32Z</time></trkpt>
      <trkpt lat="18.456011" lon="-69.930481"><ele>20</ele><time>2026-09-29T13:22:34Z</time></trkpt>
      <trkpt lat="18.455971" lon="-69.930718"><ele>20</ele><time>2026-09-29T13:22:36Z</time></trkpt>
      <trkpt lat="18.455933" lon="-69.930959"><ele>20</ele><time>2026-09-29T13:22:38Z</time></trkpt>
      <trkpt lat="18.455892" lon="-69.931191"><ele>20</ele><time>2026-09-29T13:22:40Z</time></trkpt>
      <trkpt lat="18.455858" lon="-69.931426"><ele>20</ele><time>2026-09-29T13:22:42Z</time></trkpt>
      <trkpt lat="18.455817" lon="-69.931657"><ele>20</ele><time>2026-09-29T13:22:44Z</time></trkpt>
      <trkpt lat="18.455782" lon="-69.931891"><ele>20</ele><time>2026-09-29T13:22:46Z</time></trkpt>
      <trkpt lat="18.455740" lon="-69.932124"><ele>20</ele><time>2026-09-29T13:22:48Z</time></trkpt>
      <trkpt lat="18.455705" lon="-69.932356"><ele>20</ele><time>2026-09-29T13:22:50Z</time></trkpt>
      <trkpt lat="18.455669" lon="-69.932595"><ele>20</ele><time>2026-09-29T13:22:52Z</time></trkpt>
      <trkpt lat="18.455632" lon="-69.932827"><ele>20</ele><time>2026-09-29T13:22:54Z</time></trkpt>
      <trkpt lat="18.455595" lon="-69.933061"><ele>20</ele><time>2026-09-29T13:22:56Z</time></trkpt>
      <trkpt lat="18.455565" lon="-69.933297"><ele>20</ele><time>2026-09-29T13:22:58Z</time></trkpt>
      <trkpt lat="18.455529" lon="-69.933530"><ele>20</ele><time>2026-09-29T13:23:00Z</time></trkpt>
      <trkpt lat="18.455499" lon="-69.933769"><ele>20</ele><time>2026-09-29T13:23:02Z</time></trkpt>
      <trkpt lat="18.455473" lon="-69.934000"><ele>20</ele><time>2026-09-29T13:23:04Z</time></trkpt>
      <trkpt lat="18.455442" lon="-69.934239"><ele>20</ele><time>2026-09-29T13:23:06Z</time></trkpt>
      <trkpt lat="18.455414" lon="-69.934476"><ele>20</ele><time>2026-09-29T13:23:08Z</time></trkpt>
      <trkpt lat="18.455381" lon="-69.934710"><ele>20</ele><time>2026-09-29T13:23:10Z</time></trkpt>
      <trkpt lat="18.455350" lon="-69.934941"><ele>20</ele><time>2026-09-29T13:23:12Z</time></trkpt>
      <trkpt lat="18.455316" lon="-69.935176"><ele>20</ele><time>2026-09-29T13:23:14Z</time></trkpt>
      <trkpt lat="18.455290" lon="-69.935412"><ele>20</ele><time>2026-09-29T13:23:16Z</time></trkpt>
      <trkpt lat="18.455256" lon="-69.935649"><ele>20</ele><time>2026-09-29T13:23:18Z</time></trkpt>
      <trkpt lat="18.455226" lon="-69.935885"><ele>20</ele><time>2026-09-29T13:23:20Z</time></trkpt>
      <trkpt lat="18.455194" lon="-69.936124"><ele>20</ele><time>2026-09-29T13:23:22Z</time></trkpt>
      <trkpt lat="18.455165" lon="-69.936363"><ele>20</ele><time>2026-09-29T13:23:24Z</time></trkpt>
      <trkpt lat="18.455133" lon="-69.936593"><ele>20</ele><time>2026-09-29T13:23:26Z</time></trkpt>
      <trkpt lat="18.455106" lon="-69.936824"><ele>20</ele><time>2026-09-29T13:23:28Z</time></trkpt>
      <trkpt lat="18.455077" lon="-69.937060"><ele>20</ele><time>2026-09-29T13:23:30Z</time></trkpt>
      <trkpt lat="18.455049" lon="-69.937266"><ele>20</ele><time>2026-09-29T13:23:32Z</time></trkpt>
      <trkpt lat="18.455027" lon="-69.937421"><ele>20</ele><time>2026-09-29T13:23:34Z</time></trkpt>
      <trkpt lat="18.455010" lon="-69.937575"><ele>20</ele><time>2026-09-29T13:23:36Z</time></trkpt>
      <trkpt lat="18.454994" lon="-69.937731"><ele>20</ele><time>2026-09-29T13:23:38Z</time></trkpt>
      <trkpt lat="18.454980" lon="-69.937890"><ele>20</ele><time>2026-09-29T13:23:40Z</time></trkpt>
      <trkpt lat="18.454958" lon="-69.938044"><ele>20</ele><time>2026-09-29T13:23:42Z</time></trkpt>
      <trkpt lat="18.454937" lon="-69.938201"><ele>20</ele><time>2026-09-29T13:23:44Z</time></trkpt>
      <trkpt lat="18.454914" lon="-69.938356"><ele>20</ele><time>2026-09-29T13:23:46Z</time></trkpt>
      <trkpt lat="18.454899" lon="-69.938516"><ele>20</ele><time>2026-09-29T13:23:48Z</time></trkpt>
      <trkpt lat="18.454879" lon="-69.938676"><ele>20</ele><time>2026-09-29T13:23:50Z</time></trkpt>
      <trkpt lat="18.454864" lon="-69.938838"><ele>20</ele><time>2026-09-29T13:23:52Z</time></trkpt>
      <trkpt lat="18.454838" lon="-69.938997"><ele>20</ele><time>2026-09-29T13:23:54Z</time></trkpt>
      <trkpt lat="18.454817" lon="-69.939151"><ele>20</ele><time>2026-09-29T13:23:56Z</time></trkpt>
      <trkpt lat="18.454787" lon="-69.939303"><ele>20</ele><time>2026-09-29T13:23:58Z</time></trkpt>
      <trkpt lat="18.454764" lon="-69.939457"><ele>20</ele><time>2026-09-29T13:24:00Z</time></trkpt>
      <trkpt lat="18.454735" lon="-69.939613"><ele>20</ele><time>2026-09-29T13:24:02Z</time></trkpt>
      <trkpt lat="18.454707" lon="-69.939769"><ele>20</ele><time>2026-09-29T13:24:04Z</time></trkpt>
      <trkpt lat="18.454680" lon="-69.939922"><ele>20</ele><time>2026-09-29T13:24:06Z</time></trkpt>
      <trkpt lat="18.454656" lon="-69.940076"><ele>20</ele><time>2026-09-29T13:24:08Z</time></trkpt>
      <trkpt lat="18.454636" lon="-69.940230"><ele>20</ele><time>2026-09-29T13:24:10Z</time></trkpt>
      <trkpt lat="18.454615" lon="-69.940390"><ele>20</ele><time>2026-09-29T13:24:12Z</time></trkpt>
      <trkpt lat="18.454592" lon="-69.940544"><ele>20</ele><time>2026-09-29T13:24:14Z</time></trkpt>
      <trkpt lat="18.454569" lon="-69.940706"><ele>20</ele><time>2026-09-29T13:24:16Z</time></trkpt>
      <trkpt lat="18.454546" lon="-69.940870"><ele>20</ele><time>2026-09-29T13:24:18Z</time></trkpt>
      <trkpt lat="18.454523" lon="-69.941025"><ele>20</ele><time>2026-09-29T13:24:20Z</time></trkpt>
      <trkpt lat="18.454501" lon="-69.941181"><ele>20</ele><time>2026-09-29T13:24:22Z</time></trkpt>
      <trkpt lat="18.454470" lon="-69.941336"><ele>20</ele><time>2026-09-29T13:24:24Z</time></trkpt>
      <trkpt lat="18.454445" lon="-69.941486"><ele>20</ele><time>2026-09-29T13:24:26Z</time></trkpt>
      <trkpt lat="18.454418" lon="-69.941638"><ele>20</ele><time>2026-09-29T13:24:28Z</time></trkpt>
      <trkpt lat="18.454394" lon="-69.941789"><ele>20</ele><time>2026-09-29T13:24:30Z</time></trkpt>
      <trkpt lat="18.454373" lon="-69.941942"><ele>20</ele><time>2026-09-29T13:24:32Z</time></trkpt>
      <trkpt lat="18.454348" lon="-69.942099"><ele>20</ele><time>2026-09-29T13:24:34Z</time></trkpt>
      <trkpt lat="18.454317" lon="-69.942252"><ele>20</ele><time>2026-09-29T13:24:36Z</time></trkpt>
      <trkpt lat="18.454294" lon="-69.942406"><ele>20</ele><time>2026-09-29T13:24:38Z</time></trkpt>
      <trkpt lat="18.454268" lon="-69.942561"><ele>20</ele><time>2026-09-29T13:24:40Z</time></trkpt>
      <trkpt lat="18.454243" lon="-69.942720"><ele>20</ele><time>2026-09-29T13:24:42Z</time></trkpt>
      <trkpt lat="18.454220" lon="-69.942881"><ele>20</ele><time>2026-09-29T13:24:44Z</time></trkpt>
      <trkpt lat="18.454197" lon="-69.943036"><ele>20</ele><time>2026-09-29T13:24:46Z</time></trkpt>
      <trkpt lat="18.454171" lon="-69.943191"><ele>20</ele><time>2026-09-29T13:24:48Z</time></trkpt>
      <trkpt lat="18.454144" lon="-69.943346"><ele>20</ele><time>2026-09-29T13:24:50Z</time></trkpt>
      <trkpt lat="18.454116" lon="-69.943504"><ele>20</ele><time>2026-09-29T13:24:52Z</time></trkpt>
      <trkpt lat="18.454093" lon="-69.943664"><ele>20</ele><time>2026-09-29T13:24:54Z</time></trkpt>
      <trkpt lat="18.454065" lon="-69.943822"><ele>20</ele><time>2026-09-29T13:24:56Z</time></trkpt>
      <trkpt lat="18.454038" lon="-69.943971"><ele>20</ele><time>2026-09-29T13:24:58Z</time></trkpt>
      <trkpt lat="18.454014" lon="-69.944124"><ele>20</ele><time>2026-09-29T13:25:00Z</time></trkpt>
      <trkpt lat="18.453992" lon="-69.944281"><ele>20</ele><time>2026-09-29T13:25:02Z</time></trkpt>
      <trkpt lat="18.453967" lon="-69.944445"><ele>20</ele><time>2026-09-29T13:25:04Z</time></trkpt>
      <trkpt lat="18.453942" lon="-69.944600"><ele>20</ele><time>2026-09-29T13:25:06Z</time></trkpt>
      <trkpt lat="18.453918" lon="-69.944759"><ele>20</ele><time>2026-09-29T13:25:08Z</time></trkpt>
      <trkpt lat="18.453894" lon="-69.944915"><ele>20</ele><time>2026-09-29T13:25:10Z</time></trkpt>
      <trkpt lat="18.453871" lon="-69.945069"><ele>20</ele><time>2026-09-29T13:25:12Z</time></trkpt>
      <trkpt lat="18.453847" lon="-69.945228"><ele>20</ele><time>2026-09-29T13:25:14Z</time></trkpt>
      <trkpt lat="18.453823" lon="-69.945383"><ele>20</ele><time>2026-09-29T13:25:16Z</time></trkpt>
      <trkpt lat="18.453798" lon="-69.945508"><ele>20</ele><time>2026-09-29T13:25:18Z</time></trkpt>
      <trkpt lat="18.453797" lon="-69.945504"><ele>20</ele><time>2026-09-29T13:25:20Z</time></trkpt>
      <trkpt lat="18.453804" lon="-69.945501"><ele>20</ele><time>2026-09-29T13:25:22Z</time></trkpt>
      <trkpt lat="18.453805" lon="-69.945505"><ele>20</ele><time>2026-09-29T13:25:24Z</time></trkpt>
      <trkpt lat="18.453805" lon="-69.945515"><ele>20</ele><time>2026-09-29T13:25:26Z</time></trkpt>
      <trkpt lat="18.453805" lon="-69.945512"><ele>20</ele><time>2026-09-29T13:25:28Z</time></trkpt>
      <trkpt lat="18.453803" lon="-69.945514"><ele>20</ele><time>2026-09-29T13:25:30Z</time></trkpt>
      <trkpt lat="18.453802" lon="-69.945512"><ele>20</ele><time>2026-09-29T13:25:32Z</time></trkpt>
      <trkpt lat="18.453806" lon="-69.945509"><ele>20</ele><time>2026-09-29T13:25:34Z</time></trkpt>
      <trkpt lat="18.453803" lon="-69.945512"><ele>20</ele><time>2026-09-29T13:25:36Z</time></trkpt>
      <trkpt lat="18.453801" lon="-69.945515"><ele>20</ele><time>2026-09-29T13:25:38Z</time></trkpt>
      <trkpt lat="18.453800" lon="-69.945512"><ele>20</ele><time>2026-09-29T13:25:40Z</time></trkpt>
      <trkpt lat="18.453800" lon="-69.945505"><ele>20</ele><time>2026-09-29T13:25:42Z</time></trkpt>
      <trkpt lat="18.453802" lon="-69.945511"><ele>20</ele><time>2026-09-29T13:25:44Z</time></trkpt>
      <trkpt lat="18.453801" lon="-69.945510"><ele>20</ele><time>2026-09-29T13:25:46Z</time></trkpt>
      <trkpt lat="18.453803" lon="-69.945510"><ele>20</ele><time>2026-09-29T13:25:48Z</time></trkpt>
    </trkseg>
  </trk>
</gpx>
